id,name,accountId,hasaddress,infoempresa,web,addressLocality,streetName,streetNumber,floor,latitude,longitude,localityToShow,phoneToShow,freeCallNumber,emails
17037361,Iriarte Construcciones,22810098,True,,http://www.iriarteconstrucciones.com,Buenos Aires|Berazategui,Calle 140,2310,,-34.775092,-58.2104958,Berazategui - Buenos Aires,(011) 15 - 5849 - 3164,+5491158493164,iriarte.construcciones@outlook.com
15940659,Agrimensura & Técnica Siracusa - Di Giorgio,01044092,True,,http://www.agrimensuraytecnica.com,Buenos Aires|Punta Alta,9 De Julio,256,,-38.87379,-62.08169,Punta Alta - Buenos Aires,(02932) 15 - 51 - 9727,+5492932519727,estudio@agrimensurammo.com
17052346,Casas Nórdicas,22811345,True,"Nos desarrollamos en el mercado inmobiliario del corredor Canning - Cañuelas - San Vicente, ofreciendo un servicio de excelente calidad, con planes de financiación a medida y diseños exclusivos o personalizados; que se adaptan a las necesidades de cada cliente.",http://www.casas-nordicas.com,Buenos Aires|Ezeiza,J Giribone,909,3,-34.85585,-58.50456,Ezeiza - Buenos Aires,(011) 15 - 4027 - 7932,+5491140277932,info@casas-nordicas.com
15594228,Volquetes Nino,00746157,True,"Brindamos soluciones integrales relacionadas con retiro de tierra, escombros y residuos de fábricas, obras, particulares y comercios. Brindamos nuestros servicios a empresas, particulares, arquitectos, piletas y construcciones. Cuando necesite volquetes o volquetines, nosotros somos su mejor opción en la zona.",http://www.volquetesnino.com,Buenos Aires|Lomas del Mirador,C Tejedor,641,,-34.674632,-58.518005,Lomas del Mirador - Buenos Aires,(011) 4454 - 5030,+541144545030,volquetesnino@hotmail.com
16990277,Construcciones Leo,22806297,True,"Nos dedicamos a la construcción de obras públicas y privadas. Brindamos servicios de Mantenimiento Integral y Obras. Nuestra experiencia abarca una amplia gama de servicios que incluyen limpieza, construcción, mantenimiento en general y refacción de obras. Contamos con un equipo de arquitectos, ingenieros y diseñadores altamente calificados para llevar a cabo cada proyecto de principio a fin. Hacé tu consulta por Whatsapp, estamos para ayudarte.",http://www.construccionesleo.com,Ciudad de Buenos Aires|Villa Devoto,Simbrón,4574,,-34.6099353,-58.5135658,Villa Devoto - Ciudad de Buenos Aires,(011) 15 - 6861 - 3487,+5491168613487,info@construccionesleo.com
16564867,A y Q - Construcciones,21911663,True,,www.aygconstrucciones.com.ar,Buenos Aires|San Miguel,Zuviría,1259,,-34.54988,-58.71356,San Miguel - Buenos Aires,(011) 15 - 4945 - 1789,+5491149451789,dpg.arq@hotmail.com.ar
15017112,Agrimensura Mar del Plata Packebusch,00778824,True,,,Buenos Aires|Mar del Plata,Italia,160,,-37.9769,-57.55685,Mar del Plata - Buenos Aires,(0223) 15 - 553 - 0475,+5492235530475,estudiopk@hotmail.com
13914046,Territorio Arte-Taller de Arquitectura,21791796,True,,,Buenos Aires|Bella Vista,Río Iguazú,1343,,-34.57813,-58.69177,Bella Vista - Buenos Aires,(011) 15 - 3881 - 1502,+5491138811502,territorioarte@gmail.com
14055889,Antognozzi David - Vittori Silvina - Arquitectos,00043924,True,,,Buenos Aires|Bahía Blanca,L M Drago,23,6,-38.720074,-62.266388,Bahía Blanca - Buenos Aires,(0291) 450 - 1460,+542914501460,
10413328,Saco Muzaber,01373987,True,,http://www.saccomuzaber.com.ar/,Buenos Aires|Villa Gesell,M Cané E/el Lucero Y El Ceibo,,,,,Villa Gesell - Buenos Aires,(02255) 46 - 3221,+542255463221,
13377344,Yeannes Mariana,21718199,True,,,Buenos Aires|Mar del Plata,San Lorenzo,2845,,-38.010094,-57.558865,Mar del Plata - Buenos Aires,(0223) 15 - 589 - 1954,+5492235891954,
15062375,Ecca Construcciones,21956503,True,,,Buenos Aires|La Plata,35,124,PB,,,La Plata - Buenos Aires,(011) 15 - 6376 - 8246,+5491163768246,
15185961,Stella Maris Acuña,21840978,True,,,Buenos Aires|Costa del Este,Av 2,391,,,,Costa del Este - Buenos Aires,(02257) 15 - 66 - 5917,+5492257665917,arqacua@yahoo.com.ar
15551983,Co Construcciones,01408161,True,,http://www.coconstrucciones.com.ar,Buenos Aires|Hurlingham,B Pérez Galdós,1480,,-34.602272,-58.64664,Hurlingham - Buenos Aires,(011) 4662 - 7585,+541146627585,
15617131,Arq Maria Jose Laurino,21991894,True,,,Buenos Aires|San Miguel del Monte,Dr N Repetto 695,,,,,San Miguel del Monte - Buenos Aires,(02226) 15 - 68 - 9072,+5492226689072,
15889122,Arqui Arquitectura Positiva,21731925,True,,www.arquipositiva.com.ar,Buenos Aires|Moreno,Perú,2120,,-34.64499,-58.803024,Moreno - Buenos Aires,(0237) 462 - 6542,+542374626542,info@arquipositiva.com.ar
15937240,Ivan Gianotti Arquitecto,22300261,True,,,Buenos Aires|San Nicolás,Mendoza,443,,-33.333504,-60.22824,San Nicolás - Buenos Aires,(0336) 15 - 427 - 6527,+5493364276527,ivangianotti@gmail.com
15954712,Arquitecta Mirta Caserma,21575554,True,,,Buenos Aires|Ostende,Estocolmo,498,,-37.149628,-56.88514,Ostende - Buenos Aires,(02254) 48 - 7714,+542254487714,dosmareas@telpin.com.ar
15981866,Silvina Moyano Generos & Ambientacion,00883688,True,,,Buenos Aires|Luján,Francia,892,,-34.563118,-59.11852,Luján - Buenos Aires,(02323) 15 - 55 - 7281,+5492323557281,silvina_moyano@hotmail.com
16052269,Hernan Pagliardini,22434778,True,,,Buenos Aires|Mar del Plata,Primera Junta,2574,,-38.014046,-57.558014,Mar del Plata - Buenos Aires,(0223) 15 - 680 - 3922,+5492236803922,
16564196,Estudio 2G,21583987,True,,www.arq2g.com,Buenos Aires|Villa Gesell,Avenida 3,4179,,-37.249508,-56.955055,Villa Gesell - Buenos Aires,(02255) 47 - 4497,+542255474497,admin@arq2g.com
15072445,En Concreto Casas,21958406,True,,http://www.enconcretocasas.com.ar,Buenos Aires|Tigre,A Del Valle 5155,,,,,Tigre - Buenos Aires,(011) 15 - 3200 - 1088,+5491132001088,info@enconcretocasas.com.ar
15609130,Ortiz Patricia Decoradora,00710108,True,,,Buenos Aires|Tandil,Lamadrid,647,,-37.340103,-59.122963,Tandil - Buenos Aires,(0249) 444 - 5276,+542494445276,estudio@patriciaortizdeco.com.ar
15729944,Constructora de los Reseros Servicios Integrales,21403232,True,,,Buenos Aires|Parque Leloir,De Los Reseros,1307,,-34.623085,-58.685886,Parque Leloir - Buenos Aires,(011) 4621 - 2954,+541146212954,delosreseros@gmail.com
15859925,Arq Jose Luis Biagioni,01364547,True,,,Buenos Aires|Manuel B Gonnet,Cno Centenario,2744,1,-34.849953,-58.093506,Manuel B Gonnet - Buenos Aires,(0221) 471 - 0419,+542214710419,
16604479,German Sergio Pla,21954185,True,,,Buenos Aires|La Plata,121,705,,-34.8825,-57.963116,La Plata - Buenos Aires,(0221) 15 - 543 - 1186,+5492215431186,
16604311,Juan Martin Puchuri,21815297,True,,,Buenos Aires|La Plata,43 57,,,-34.9244,-57.9545,La Plata - Buenos Aires,(0221) 15 - 568 - 1544,+5492215681544,puchujuanmartin@hotmail.com
16611316,Umbral Estudio - Arquitectura y Desarrollos Inmobiliarios,21802795,True,,,Buenos Aires|Chivilcoy,Yapeyú,19,,-34.900085,-60.016666,Chivilcoy - Buenos Aires,(02346) 42 - 1697,+542346421697,info@umbralestudio.com.ar
14879278,Mca Arquitecto,21940316,True,,,Buenos Aires|Bernal Este,Belgrano,328,12,-34.712265,-58.28062,Bernal Este - Buenos Aires,(011) 4251 - 1927,+541142511927,marcoscabralarquitecto@gmail.com
16383972,Arquitecto Carlos Javier Marcone,21725289,True,,http://www.arq-carlosmarcone.com.ar,Buenos Aires|San Nicolás,Urquiza,122,,-33.333336,-60.22824,San Nicolás - Buenos Aires,(0336) 15 - 465 - 1680,+5493364651680,
15733437,Ricatti y Asociados - Negocios Inmobiliarios,21761266,True,,www.ricattiasociados.com.ar,Buenos Aires|Glew,Castro Cambón,104,,-34.8882,-58.381004,Glew - Buenos Aires,(02224) 42 - 0430,+542224420430,
16114251,Valeria Laura Borio,22533156,True,,,Buenos Aires|Quilmes,Monroe,577,,-34.716908,-58.246944,Quilmes - Buenos Aires,(011) 15 - 6954 - 5266,+5491169545266,
16549486,Fernando Fabian Rubeo,21811291,True,,,Buenos Aires|La Plata,CALLE 138 1168,,,,,La Plata - Buenos Aires,(0221) 15 - 638 - 9988,+5492216389988,
14154730,Maestro Mayor de Obra,21787285,True,,,Buenos Aires|San Martín,R L Falcón,4951,00,-34.57976,-58.53981,San Martín - Buenos Aires,(011) 15 - 5043 - 2012,+5491150432012,
15156632,Ferreteria Industrial - Carlos a Frisina,00222153,True,,www.carlosfrisina.com.ar,Buenos Aires|Junín,B De Miguel,601,,-34.599075,-60.9578,Junín - Buenos Aires,(0236) 444 - 3246,+542364443246,
15529328,Marta Otero y Santiago Barcelo Arquitectos,21722920,True,,,Buenos Aires|San Pedro,Belgrano,399,,-33.700085,-59.683334,San Pedro - Buenos Aires,(03329) 42 - 5112,+543329425112,
15572105,Gestoria Platense,00242145,True,,http://www.gestoriaplatense.com.ar,Buenos Aires|La Plata,48,877,3,-34.91887,-57.957054,La Plata - Buenos Aires,(0221) 482 - 8877,+542214828877,gestoriaplatense@yahoo.com
14719866,Estudio de Agrimensura,00955688,True,,,Buenos Aires|Pilar,L López,863,,-34.459296,-58.916801,Pilar - Buenos Aires,(0230) 442 - 1720,+542304421720,agrimdabove@gmail.com
16564583,Rubio Noelia Celeste,21800783,True,,http://www.estudio27.com.ar,Buenos Aires|Mar del Plata,Entre Ríos,1740,,,,Mar del Plata - Buenos Aires,(0223) 15 - 623 - 9576,+5492236239576,
16464436,Estudio Tecnico Sur Cabelli - Orona,00886530,True,,http://www.estudiotecnicosur.com,Buenos Aires|Berisso,131,693,,-34.935265,-57.978226,Berisso - Buenos Aires,(0221) 15 - 505 - 5331,+5492215055331,estudiosur@hotmail.com
15138656,Estudio de Arquitectura Maria Eugenia Pellegrini,21127603,True,,,Buenos Aires|Villa Elisa,422,2164,,-34.871574,-58.092197,Villa Elisa - Buenos Aires,(0221) 15 - 573 - 2692,+5492215732692,
16021209,Estudio Arquitectura Vista-B Elian Iellimo,22432148,True,,,Buenos Aires|San Justo,H Yrigoyen,1064,,-34.668438,-58.54916,San Justo - Buenos Aires,(011) 15 - 4889 - 1412,+5491148891412,estudio.vistab@gmail.com
15700194,Nan Arquitectura,21922484,True,,,Buenos Aires|La Plata,47,162,,-34.90585,-57.943012,La Plata - Buenos Aires,(0221) 15 - 501 - 6987,+5492215016987,nan.arquitectura@gmail.com
16237649,Vilaro Jose Luis e Hijos Arquitectos,01446598,True,,,Buenos Aires|Marcos Paz,Belgrano,2105,,-34.78444,-58.838005,Marcos Paz - Buenos Aires,(0220) 477 - 2949,+542204772949,
16300178,Colegio de Arquitectos Distrito 8 - Delegacion Olavarria,00207262,True,,www.capba8.com,Buenos Aires|Olavarría,Rivadavia,2188,,-36.88445,-60.30974,Olavarría - Buenos Aires,(02284) 42 - 9787,+542284429787,capba8secretaria@gmail.com
16564593,Arquitecto Adrian Santolin,21803965,True,,www.globalestudio.blogspot.com.ar,Buenos Aires|Merlo,los almendros los almendros s/n esquina pringles,,,,,Merlo - Buenos Aires,(0266) 15 - 440 - 9073,+5492664409073,estudiosantolin@gmail.com
16844450,Jaluf Pablo Daniel,21740672,True,,,Buenos Aires|Mar del Plata,Alte Brown,3231,PB,-38.000953,-57.557264,Mar del Plata - Buenos Aires,(0223) 15 - 594 - 9080,+5492235949080,
16176355,Mc Decodiseños,22538043,True,,www.toodesign.com.ar,Buenos Aires|Boulogne Sur Mer,Av A Rolón,2627,,-34.51492,-58.568172,Boulogne Sur Mer - Buenos Aires,(011) 15 - 5456 - 9965,+5491154569965,marita1305@live.com.ar
15613602,Conar,01409755,True,,http://www.conar-techos.com.ar,Buenos Aires|Olivos,Fray J Sarmiento,3143,,-34.51465,-58.507378,Olivos - Buenos Aires,(011) 4790 - 1950,+541147901950,
16610041,Alarmas Ram,00514515,True,,,Buenos Aires|Azul,España,696,,-36.78325,-59.85,Azul - Buenos Aires,(02281) 43 - 5450,+542281435450,martinaarquitectura@live.com
15072140,Dass - Arquitectura & Construccion,00878203,True,,www.dass.com.ar,Buenos Aires|Temperley,C Casares,168,,-34.763115,-58.386036,Temperley - Buenos Aires,(011) 4244 - 4700,+541142444700,info@dass.com.ar
15200657,Arq. Alejandro Santos Di Pietro,00082923,True,,,Buenos Aires|Mar del Plata,Solís,8170,,-38.00899,-57.586533,Mar del Plata - Buenos Aires,(0223) 15 - 519 - 1060,+5492235191060,
15267984,Colegio de Arquitectos Pcia Bs As Dist IX,00077453,True,,http://www.capba9.org.ar,Buenos Aires|Mar del Plata,Dorrego,1657,,-37.992783,-57.55877,Mar del Plata - Buenos Aires,(0223) 473 - 3031,+542234733031,tesoreria@capba9.org.ar
15296433,Braccini Rega Arquitectura,00538542,True,,www.braccini-rega.com.ar,Buenos Aires|Bahía Blanca,H Yrigoyen,1022,PB,-38.709,-62.26,Bahía Blanca - Buenos Aires,(0291) 455 - 4700,+542914554700,
15815753,"""Estudio Sagese"" Saidman y Semrik",00231731,True,,,Buenos Aires|La Plata,42,934,,-34.915256,-57.96438,La Plata - Buenos Aires,(0221) 15 - 637 - 5536,+5492216375536,estudiosur60@gmail.com
16230802,Arquitecto Marcelo o Subiros,00227483,True,,,Buenos Aires|Arrecifes,Lamadrid,153,,-34.06675,-60.11667,Arrecifes - Buenos Aires,(02478) 45 - 2247,+542478452247,
16231108,Heladeria la Veneciana,00242603,True,,,Buenos Aires|La Plata,12 1234 e/57 y 58,,,,,La Plata - Buenos Aires,(0221) 483 - 2626,+542214832626,
16233189,Fuero de Familia Dr Agustin Arias,00677901,True,,,Buenos Aires|Mar del Plata,Garay,2972,,-38.00645,-57.5576,Mar del Plata - Buenos Aires,(0223) 15 - 447 - 8009,+5492234478009,
16248218,Arquitectura de Hoy - Cielorrasos - Revestimientos,00242301,True,,www.arquitecturadehoy.com.ar,Buenos Aires|Tolosa,Avenida 13,820,,-34.89987,-57.98447,Tolosa - Buenos Aires,(0221) 483 - 3000,+542214833000,geraldiner@arquitecturadehoy.com.ar
16605831,Viveco SRL Arquitectos,00209056,True,,www.vivecoarq.com.ar,Buenos Aires|Tandil,San Martín,271,,-37.328598,-59.140476,Tandil - Buenos Aires,(0249) 442 - 1280,+542494421280,arquitectos@viveco.com.ar
16604125,Construcciones Civiles Arquitecto Fernando Mancuso,21854370,True,,,Buenos Aires|Moreno,Almafuerte 1402,,,,,Moreno - Buenos Aires,(011) 15 - 5037 - 1082,+5491150371082,fernando_mancuso@hotmail.com
15285879,Estudio de Arquitectura Ramon Garcia,00971900,True,,,Buenos Aires|Escobar,Asborno,712,,-34.34633,-58.795185,Escobar - Buenos Aires,(0348) 442 - 0859,+543484420859,rgploteos@arnetbiz.com.ar
16053079,Leonardo Diamante,22434821,True,,,Buenos Aires|La Plata,116,457,,-34.900864,-57.950474,La Plata - Buenos Aires,(0221) 15 - 602 - 1380,+5492216021380,
16300427,Francisco Urbina Arquitecto,21824474,True,,,Buenos Aires|La Plata,59,568,,-34.919544,-57.942207,La Plata - Buenos Aires,(0221) 15 - 557 - 7783,+5492215577783,franurbina@hotmail.com
15730261,Guidam - Fabricacion de Electroimanes,01271031,True,,http://www.guidam.com.ar,Buenos Aires|Caseros,M Moreno,5210,,-34.607685,-58.571373,Caseros - Buenos Aires,(011) 4734 - 2685,+541147342685,guidamargentina@yahoo.com.ar
15872538,Eizmendi Miguel Gustavo,00253029,True,,http://www.eizmendi-ortega.com.ar,Buenos Aires|Pehuajó,Rivarola,860,,-35.8,-61.866,Pehuajó - Buenos Aires,(02396) 47 - 2859,+542396472859,eizmendi-ortega-arq@speedy.com.ar
16687822,Mv Consultora,22776539,True,,,Buenos Aires|Villa Rosa,B Sta Guadalup 0 lote 163,,,,,Villa Rosa - Buenos Aires,(011) 15 - 3017 - 6530,+5491130176530,caroavm@gmail.com
15814453,Estudio de Arquitectura Luis Villalon Gonzalez,21565528,True,,http://www.arqvillalon.com,Buenos Aires|Mar del Plata,G E Hudson,4327,,-38.00542,-57.574455,Mar del Plata - Buenos Aires,(0223) 15 - 600 - 1381,+5492236001381,
10400686,Seni Encofrados,01260331,True,,http://www.grupocams.com,Buenos Aires|Mar del Plata,Alvarado,1362,3,-38.016186,-57.542828,Mar del Plata - Buenos Aires,(0223) 451 - 6731,+542234516731,
15559314,Arquitectos Santiago Velazco y Gabriel Velázquez,21983622,True,,,Buenos Aires|Caseros,D Magdalena,2250,,-34.60535,-58.56033,Caseros - Buenos Aires,(011) 15 - 3263 - 8223,+5491132638223,santiagov_arquitectura@hotmail.com
15780370,Ripari Ricardo+Asociados Bureau de Arquitectos,00560830,True,,,Buenos Aires|La Plata,Diagonal 75,194,,-34.931332,-57.947878,La Plata - Buenos Aires,(0221) 452 - 2136,+542214522136,consultas@estudioripari.com.ar
15868193,Raul Maffoni Propiedades,00605611,True,,www.maffonipropiedades.com.ar,Buenos Aires|Adrogué,N Avellaneda,595,,-34.79928,-58.398823,Adrogué - Buenos Aires,(011) 4294 - 0487,+541142940487,info@maffonipropiedades.com.ar
15240723,Rivas Sandra,21913688,True,,,Buenos Aires|Manuel B Gonnet,499,1446,,-34.89125,-58.02144,Manuel B Gonnet - Buenos Aires,(0221) 15 - 498 - 7391,+5492214987391,arq.sandra.rivas@gmail.com
15944357,C-Ar-Ing Constructora,00212315,True,,http://www.caringconstructora.com.ar,Buenos Aires|Cañuelas,Basavilbaso,657,,-35.056557,-58.75695,Cañuelas - Buenos Aires,(02226) 42 - 1998,+542226421998,
16564978,Nestor Mario Gabilan,21947768,True,,,Buenos Aires|Mar del Plata,No informa S/N,,,,,Mar del Plata - Buenos Aires,(0223) 15 - 437 - 9210,+5492234379210,
15096834,Arquitecura Bartoletti y Asociados,21958849,True,,,Buenos Aires|Chascomús,Moreno,226,,-35.58109,-58.01014,Chascomús - Buenos Aires,(02241) 42 - 3982,+542241423982,
15781958,Barone Aberturas,00236366,True,,http://www.baroneaberturas.com.ar,Buenos Aires|La Plata,60,756,,-34.924053,-57.94486,La Plata - Buenos Aires,(0221) 452 - 0825,+542214520825,ventas@baroneaberturas.com.ar
16693591,Alfa Cerámicos,21408369,True,"Somos líderes en el mercado de venta de cerámicos y pegamentos. Nuestro extenso catálogo de cerámicos incluye una amplia gama de estilos, diseños y tamaños, adecuados para todo tipo de proyectos de construcción y remodelación. Nos comprometemos con proporcionar productos de calidad, un servicio excepcional y precios competitivos. Ya sea que seas un profesional de la construcción, un arquitecto o simplemente un amante del diseño de interiores.",,Buenos Aires|Mar del Plata,Av Colón,6945,,-37.98116,-57.59369,Mar del Plata - Buenos Aires,(0223) 15 - 520 - 9187,+5492235209187,mgquinteros@hotmail.com
15538608,Caja de Prevision Social P/Agrimensores - Arquitectos - Inge,00230068,True,,http://www.caaitba.org.ar,Buenos Aires|La Plata,48,695,,-34.915,-57.953,La Plata - Buenos Aires,(0221) 412 - 0600,+542214120600,jrossi@caaitba.org.ar
16560033,Fiorentini Nutz Diseño y Construccion,22761909,True,,,Buenos Aires|Tigre,Bourdieu,530,,-34.423973,-58.579693,Tigre - Buenos Aires,(011) 15 - 6950 - 6501,+5491169506501,efndyc@gmail.com
13201300,Carbone y Fernandez,00360262,True,,,Buenos Aires|Ituzaingo,F De Olazábal,863,1,-34.656918,-58.667923,Ituzaingo - Buenos Aires,(011) 4458 - 3616,+541144583616,
16843431,Eduardo J San Andres,21212849,True,,,Buenos Aires|Ringuelet,7,1343,,,,Ringuelet - Buenos Aires,(0221) 15 - 418 - 5104,+5492214185104,
15033894,Gicovate Arquitectos,01068118,True,,,Buenos Aires|Martínez,Emilio Lamarca,385,1,-34.48788,-58.495808,Martínez - Buenos Aires,(011) 4733 - 6664,+541147336664,
16873694,S M Arquitectura,22765415,True,,http://www.smarquitecturaconstrucciones.com,Buenos Aires|Pinamar,Ing Devillard 983,,,,,Pinamar - Buenos Aires,(0221) 15 - 419 - 1371,+5492214191371,mendez.severo@gmail.com
16883080,Ame - Estudio de Arquitectura - Arquitectos Manzi - Epstein,01434221,True,,,Buenos Aires|Ingeniero Maschwitz,Falucho,1503,,-34.39084,-58.73891,Ingeniero Maschwitz - Buenos Aires,(0348) 444 - 1104,+543484441104,
15230786,Alonso Raul,01078758,True,,,Buenos Aires|San Isidro,Martín y Omar,129,,-34.471867,-58.5125,San Isidro - Buenos Aires,(011) 4743 - 0376,+541147430376,
15672095,Cabrera Daniel Alberto,21546632,True,,,Buenos Aires|Marcos Paz,Dr M Paz,614,,-34.78325,-58.85,Marcos Paz - Buenos Aires,(0220) 477 - 2133,+542204772133,
11536007,Arquitectos,01249428,True,,,Buenos Aires|Valentín Alsina,Ucrania,1050,PB,-34.678604,-58.406364,Valentín Alsina - Buenos Aires,(011) 4209 - 7285,+541142097285,
15725259,El Faro Construcciones y Servicios,01396966,True,,www.faroconsultores.org,Buenos Aires|Banfield,Viamonte,1592,,-34.742912,-58.38865,Banfield - Buenos Aires,(011) 4202 - 5171,+541142025171,consultoraelfaro@hotmail.com
15831368,Arquisuarez,00887300,True,,www.arquisuarez.com.ar,Buenos Aires|Castelar,Cañada De Ruiz,690,,-34.64131,-58.624413,Castelar - Buenos Aires,(011) 4627 - 1249,+541146271249,info@arquisuarez.com.ar
12554626,Fazio Haydee,21557903,True,,,Buenos Aires|Ranelagh,Calle 370,592,,-34.783867,-58.20097,Ranelagh - Buenos Aires,(011) 4258 - 8819,+541142588819,
16031183,Estudio de Arquitectura Door,22432477,True,,,Buenos Aires|La Plata,116,424,,-34.90011,-57.951218,La Plata - Buenos Aires,(0221) 15 - 605 - 8068,+5492216058068,doorestudio@gmail.com
14084482,Estudio Praderio,00670135,True,,,Buenos Aires|La Plata,73,382,,-34.928497,-57.921284,La Plata - Buenos Aires,(0221) 452 - 3955,+542214523955,
10803446,Alvarez Daniel,00357822,True,,,Buenos Aires|Hurlingham,F De Alfaro,748,,-34.596203,-58.62661,Hurlingham - Buenos Aires,(011) 4452 - 1458,+541144521458,
14705452,Arquitectura la Lucila,21907749,True,,www.arquitecturalalucila.jimdo.com,Buenos Aires|La Lucila del Mar,San Juan,5000,,-36.667202,-56.68863,La Lucila del Mar - Buenos Aires,(02257) 46 - 4668,+542257464668,
14777707,Crear Estudio,21549600,True,,www.crearestudio.com.ar,Buenos Aires|Ringuelet,13 Bis,1209,,,,Ringuelet - Buenos Aires,(0221) 484 - 4148,+542214844148,
15595463,Estudio Siezien,00316400,True,,,Buenos Aires|Wilde,F Onsari,291,PB,-34.70674,-58.32066,Wilde - Buenos Aires,(011) 4207 - 1043,+541142071043,
14435310,M&C Arquitectos,01436334,True,,www.myc-arquitectos.com.ar,Buenos Aires|Hurlingham,Bizet,2483,PB,-34.599026,-58.641907,Hurlingham - Buenos Aires,(011) 4665 - 9529,+541146659529,estudio@myc-arquitectos.com.ar
16050008,Rakita Matteoli,21622446,True,,www.rm-arquitectos.com.ar,Buenos Aires|San Bernardo,J C Chiozza,2874,,-36.69499,-56.68864,San Bernardo - Buenos Aires,(02257) 46 - 8352,+542257468352,estudio@rm-arquitectos.com.ar
16065417,Cangiano Capparelli,00673880,True,,www.cangianocapparelli.com.ar,Buenos Aires|Pinamar,Jason 1371,,,,,Pinamar - Buenos Aires,(02254) 40 - 5060,+542254405060,info@cangianocapparelli.com.ar
16068802,Grupo Idear Arquitectura Cons,21744986,True,,,Buenos Aires|Mar del Plata,Alvarado,1796,,-38.014014,-57.547222,Mar del Plata - Buenos Aires,(0223) 491 - 5416,+542234915416,
14155980,Julio Lopez Vietri,01363623,True,,,Buenos Aires|Martínez,Av Santa Fe,1771,08,-34.48779,-58.501507,Martínez - Buenos Aires,(011) 4798 - 1421,+541147981421,
16085544,Arquitecta Patricia Monica Damiani,21965243,True,,,Buenos Aires|Adolfo Sourdeaux,Esqui,5318,,-34.50213,-58.65651,Adolfo Sourdeaux - Buenos Aires,(011) 15 - 4196 - 5235,+5491141965235,
16092035,Mariela Hedo,22531871,True,,,Buenos Aires|Mar del Plata,Formosa,3467,,-38.012745,-57.569702,Mar del Plata - Buenos Aires,(0249) 15 - 431 - 8096,+5492494318096,marielahedo@gmail.com
13816383,Demaio Gustavo - Arquitecto,00702718,True,,,Buenos Aires|Pinamar,De Las Artes,261,,-37.11898,-56.86568,Pinamar - Buenos Aires,(02254) 48 - 3028,+542254483028,
16094744,Martinez Parra Maria Julieta,21291304,True,,,Buenos Aires|Cañuelas,Rivadavia,498,,-35.055717,-58.757435,Cañuelas - Buenos Aires,(02226) 43 - 3122,+542226433122,
16094754,Mario Rafael Melgar,21210805,True,,,Buenos Aires|Juan María Gutiérrez,413,907,,,,Juan María Gutiérrez - Buenos Aires,(02229) 45 - 4282,+542229454282,
16095714,Helio Eneas Casal,21804599,True,,,Buenos Aires|Parque Camet,J MARIANI 6129,,,,,Parque Camet - Buenos Aires,(0223) 479 - 6241,+542234796241,casalhelio@copetel.com.ar
16095786,Bulla Arquitectura,21928569,True,,,Buenos Aires|San Nicolás,Nación,295,,-33.333504,-60.22824,San Nicolás - Buenos Aires,(0336) 15 - 403 - 6854,+5493364036854,ceciliabulla@hotmail.com
16098342,Dimension Urbana,22532332,True,,,Buenos Aires|Pigüé,No informa SN,,,,,Pigüé - Buenos Aires,(02923) 15 - 52 - 0421,+5492923520421,arqmcmoralejo@gmail.com
15786525,Estudio Maneiro Vazquez,00851839,True,,www.maneirovazquez.com.ar,Buenos Aires|Pinamar,Av Arq J Bunge,324,,-37.118813,-56.86568,Pinamar - Buenos Aires,(02254) 47 - 0163,+542254470163,info@maneirovazquez.com.ar
16101099,Estudio de Arquitectura Trevissan,22532584,True,,,Buenos Aires|La Plata,55,551,5,-34.916485,-57.945736,La Plata - Buenos Aires,(011) 15 - 5974 - 2885,+5491159742885,normatrevisan2000@yahoo.com.ar
16102102,Estudio Salleras Jorge- Mariano,01376299,True,,,Buenos Aires|Tortuguitas,Del Viso,S/N,,,,Tortuguitas - Buenos Aires,(02320) 49 - 8521,+542320498521,
16130261,Arquihome,01375269,True,,,Buenos Aires|La Lonja,PANAMERICANA KM50 PILAR,,,,,La Lonja - Buenos Aires,(0230) 447 - 3487,+542304473487,arquihome@gmail.com
13627611,Valeria E. Llamazazares,21735177,True,,,Buenos Aires|Bahía Blanca,Caronti,348,2b,-38.71064,-62.266754,Bahía Blanca - Buenos Aires,(0291) 15 - 422 - 5037,+5492914225037,
14771557,Zaccanti & Monti,21920791,True,,www.zaccantimonti.com.ar,Buenos Aires|Mar del Plata,San Lorenzo,2523,,-38.01167,-57.555656,Mar del Plata - Buenos Aires,(0223) 15 - 455 - 9436,+5492234559436,arquitectoszm@gmail.com
16165880,Estudio de Arquitectos Msm,22536943,True,,,Buenos Aires|Balcarce,Calle 24,630,,-37.866585,-58.25,Balcarce - Buenos Aires,(02266) 15 - 44 - 9868,+5492266449868,estudioarqmsm@gmail.com
16168799,Om Soluciones Integrales,22537276,True,,,Buenos Aires|Mar del Plata,Av Vértiz,8102,,-38.017025,-57.594543,Mar del Plata - Buenos Aires,(0223) 15 - 564 - 4078,+5492235644078,om.obrasmetalicas@gmail.com
11353463,Fernadez Borda,00745481,True,,www.fernandezborda.com.ar,Buenos Aires|Del Viso,Col 12 De Oct S/N,,,,,Del Viso - Buenos Aires,(02320) 40 - 7888,+542320407888,info@fernandezborda.com.ar
13572409,Andres Moroni Arquitecto,21729611,True,,,Buenos Aires|Bahía Blanca,Azara,3160,,-38.70352,-62.228577,Bahía Blanca - Buenos Aires,(0291) 15 - 503 - 8338,+5492915038338,moroniandres@yahoo.com
14532477,Arquitecto Jorge Palazzo,21126545,True,,,Buenos Aires|El Faro,Pasionar  e/ C Manuel  y Hor-Bosque,,,,,El Faro - Buenos Aires,(0223) 467 - 0775,+542234670775,
15698789,Jorge Numa Bellini,00547980,True,,,Buenos Aires|Parque Camet,F Acosta,3848,,-37.974686,-57.544636,Parque Camet - Buenos Aires,(0223) 471 - 3900,+542234713900,
14672039,Gabriel Bungi Arquitecto,21902099,True,,,Buenos Aires|Banfield,Godoy Cruz,448,3,-34.737488,-58.399887,Banfield - Buenos Aires,(011) 15 - 6552 - 9106,+5491165529106,gabrielbungi@hotmail.com
16223306,Maria a Preuss,22407782,True,,,Buenos Aires|San Isidro,33 Orientales,1050,,,,San Isidro - Buenos Aires,(011) 4747 - 9246,+541147479246,
16225682,Arquitectura - Lucas Matias Buono,22542463,True,,,Buenos Aires|9 de Julio,Mendoza,1144,,-35.449917,-60.88333,9 de Julio - Buenos Aires,(02317) 15 - 53 - 9390,+5492317539390,lucasbuono_10@hotmail.com
16226935,Campo Cabrera Arquitectos,22542553,True,,,Buenos Aires|Trenque Lauquen,,,,,,Trenque Lauquen - Buenos Aires,(02392) 15 - 48 - 2650,+5492392482650,estudiocampocabrera@gmail.com
16228328,Arquitecta Analia Guerrero,22542704,True,,,Buenos Aires|Pehuajó,J D Perón 217,,,,,Pehuajó - Buenos Aires,(02396) 15 - 46 - 5353,+5492396465353,arq.analiaguerrero@gmail.com
16228402,Arquitecta Conde Maria Carolina,22542771,True,,,Buenos Aires|Trenque Lauquen,Castelli,570,,-35.966583,-62.733334,Trenque Lauquen - Buenos Aires,(02392) 15 - 67 - 7915,+5492392677915,carolinacondearquitecta@gmail.com
16240227,Diseños Corporativos - Javier Fresnadillo,22542840,True,,www.dcorporativos.com.ar,Buenos Aires|Trenque Lauquen,Pereyra Rosas,420,,-35.966583,-62.733334,Trenque Lauquen - Buenos Aires,(02392) 15 - 61 - 9110,+5492392619110,estudio@dcorporativos.com.ar
16245106,Estudio-Zd Arquitectura,21896185,True,,,Buenos Aires|9 de Julio,La Rioja,1588,,,,9 de Julio - Buenos Aires,(02317) 52 - 4212,+542317524212,estudio-zd@outlook.com
16245172,Estudio Nuñez - Nanni Arquitectura,22542972,True,,,Buenos Aires|9 de Julio,Av Vedia,691,,-35.450085,-60.88333,9 de Julio - Buenos Aires,(02317) 15 - 53 - 0128,+5492317530128,maximiliano.nunez.arq@gmail.com
13564193,Pablo D Aranda,21429717,True,,,Buenos Aires|Campana,Chiclana,736,,-34.170093,-58.967658,Campana - Buenos Aires,(03489) 42 - 6174,+543489426174,daiana.sancho@gmail.com
16166816,Julian Duarte Arquitecto,22537145,True,,www.ddarq.wordpress.com,Buenos Aires|Mar del Plata,Castelli,3033,,-38.006733,-57.55883,Mar del Plata - Buenos Aires,(0223) 15 - 542 - 2123,+5492235422123,ddarquitectura.mdp@gmail.com
15244563,Bros Aristides Luis,00745486,True,,,Buenos Aires|Pigüé,L N Alem,154,,-37.68325,-62.4,Pigüé - Buenos Aires,(02923) 40 - 3196,+542923403196,
15222690,Ricardo Butelman,21272044,True,,,Buenos Aires|San Isidro,Martín y Omar,129,3,-34.471867,-58.5125,San Isidro - Buenos Aires,(011) 4743 - 0211,+541147430211,
16079147,Actitud Arquitectura,22522242,True,,,Buenos Aires|Morón,Alte Brown,971,PB,-34.65035,-58.62213,Morón - Buenos Aires,(011) 15 - 6621 - 8098,+5491166218098,actitudarquitectura@hotmail.com
13211986,Estudio Martin Varvasini,21534757,True,,http://www.varvasini.com.ar/,Buenos Aires|Villa Gesell,Calle 30,,,-37.248496,-56.97163,Villa Gesell - Buenos Aires,(02255) 45 - 2006,+542255452006,
16497672,Distrito V Colegio de Arquitectos Bs As,21707479,True,,www.capbad6.com.ar,Buenos Aires|San Nicolás,Las Heras,85,,-33.340574,-60.223379,San Nicolás - Buenos Aires,(0336) 442 - 8006,+543364428006,
15841973,Architects & Planners,01071482,True,,www.ibm.com,Buenos Aires|Martínez,Lima,985,,-34.493298,-58.52859,Martínez - Buenos Aires,(011) 4898 - 4898,+541148984898,
12095773,Altrui Antonio Arq.,21543211,True,,,Buenos Aires|Villa Martelli,Av D French,515,,-34.550224,-58.514908,Villa Martelli - Buenos Aires,(011) 4709 - 0243,+541147090243,
14771556,Arqmdp Arquitectura Diseño,21920790,True,,,Buenos Aires|Mar del Plata,Av Constitución,5073,2,-37.96509,-57.554214,Mar del Plata - Buenos Aires,(0223) 471 - 3143,+542234713143,info@arqmdp.com
14773125,Estudio Doheijo Tissone,21920856,True,,,Buenos Aires|Boulogne Sur Mer,Mñr A Calcagno,878,,-34.4954,-58.567627,Boulogne Sur Mer - Buenos Aires,(011) 15 - 6156 - 4599,+5491161564599,estudiodoheijotissone@gmail.com
16698453,Espacio Profesional Estudio Contable,22776934,True,,,Buenos Aires|Pinamar,Av Constitución,1235,,-37.11898,-56.86568,Pinamar - Buenos Aires,(02254) 15 - 41 - 6353,+5492254416353,espacioprofesionalpinamar@gmail.com
10863137,Ciaramela Sergio,00772638,True,,,Buenos Aires|Castelar,Deán Funes,531,,-34.652552,-58.655538,Castelar - Buenos Aires,(011) 4623 - 5523,+541146235523,
16452129,Arq Veronica Laura Garcia,21892507,True,,,Buenos Aires|Morón,Alte Brown,623,1,-34.650517,-58.617737,Morón - Buenos Aires,(011) 15 - 5656 - 6736,+5491156566736,disegno_vero@hotmail.com
15660199,La Frossia Pablo,00726129,True,,,Buenos Aires|Villa Gesell,Avenida 16,,,,,Villa Gesell - Buenos Aires,(02255) 46 - 8421,+542255468421,lafrossia@hotmail.com
15734537,Beatriz Grinberg,01257120,True,,,Buenos Aires|Villa Gesell,Avenida 8,804,,-37.24934,-56.955055,Villa Gesell - Buenos Aires,(02255) 46 - 2453,+542255462453,beatriz_grinberg@hotmail.com
14083900,Llompart Mabel,00656892,True,,,Buenos Aires|Villa Gesell,Alameda 212,525,,,,Villa Gesell - Buenos Aires,(02255) 45 - 8058,+542255458058,
14894191,Sandra Martin Arquitecta,00726268,True,,,Buenos Aires|Villa Gesell,Paseo 130,858,,-37.24934,-56.955055,Villa Gesell - Buenos Aires,(02255) 46 - 4805,+542255464805,
15660068,Samsolo,00736587,True,,,Buenos Aires|Villa Gesell,Paseo 107,410,,-37.24934,-56.955055,Villa Gesell - Buenos Aires,(02255) 45 - 9890,+542255459890,
15660116,Berasain Jose Feliciano - Arquitecto,21586532,True,,,Buenos Aires|Villa Gesell,Avenida 7,931,,-37.249508,-56.955055,Villa Gesell - Buenos Aires,(02255) 46 - 3317,+542255463317,
14073430,Piazza Urbano u,00350568,True,,,Buenos Aires|Temperley,Alte Brown,3394,PB,-34.776776,-58.391818,Temperley - Buenos Aires,(011) 4292 - 8071,+541142928071,
10720107,Scheggia Oscar,00077332,True,,,Buenos Aires|Mar del Plata,Salta,1725,,-37.99601,-57.55428,Mar del Plata - Buenos Aires,(0223) 473 - 1837,+542234731837,
10773702,Siarco SRL,00078954,True,,,Buenos Aires|Mar del Plata,Alvarado,3049,,-38.007555,-57.559544,Mar del Plata - Buenos Aires,(0223) 475 - 3005,+542234753005,
10801047,Amena Roberto H,00217626,True,,,Buenos Aires|Alberti,Av Vaccarezza,145,,,,Alberti - Buenos Aires,(02346) 47 - 1202,+542346471202,
10395034,Arquitecta Marzano Maria Constanza,01288052,True,,,Buenos Aires|Temperley,Gallardo,250,,-34.77009,-58.394768,Temperley - Buenos Aires,(011) 4243 - 1486,+541142431486,
10485725,Alvarez Hector Francisco,01450272,True,,,Buenos Aires|Adrogué,B Cerretti,1143,,-34.802127,-58.384387,Adrogué - Buenos Aires,(011) 4294 - 8337,+541142948337,
10918170,Arquimia,21178120,True,,,Buenos Aires|Lomas de Zamora,Loria,61,,-34.76326,-58.398167,Lomas de Zamora - Buenos Aires,(011) 4293 - 1660,+541142931660,
12554054,Nc Arquitectura,21531419,True,,,Buenos Aires|Bernal Este,L N Alem,139,PB,-34.710037,-58.288128,Bernal Este - Buenos Aires,(011) 4251 - 2767,+541142512767,
12554155,Ibarrondo,21538182,True,,,Buenos Aires|Valentín Alsina,E De San Martín,3088,1,-34.672813,-58.411747,Valentín Alsina - Buenos Aires,(011) 4228 - 4993,+541142284993,
12554525,Eduardo Calgagno,21549469,True,,,Buenos Aires|Avellaneda,Italia,74,15,-34.665134,-58.362267,Avellaneda - Buenos Aires,(011) 4222 - 4749,+541142224749,
12862219,Estudio Basile,01376282,True,,,Buenos Aires|Pilar,San Martín,781,,-34.460179,-58.914597,Pilar - Buenos Aires,(0230) 442 - 0992,+542304420992,
13560336,Silvana Lezzieri,01404980,True,,,Buenos Aires|Bahía Blanca,Güemes,507,PB,-38.716547,-62.275226,Bahía Blanca - Buenos Aires,(0291) 455 - 8580,+542914558580,inmoarquitect@infovia.com.ar
13660684,Sorarrain Manuel,00229897,True,,,Buenos Aires|La Plata,47,981,,-34.920166,-57.96006,La Plata - Buenos Aires,(0221) 424 - 5955,+542214245955,
13968484,Jose Luis Cancro,21802821,True,,,Buenos Aires|Chivilcoy,Viedma,16,,-34.899918,-60.016666,Chivilcoy - Buenos Aires,(02346) 43 - 2098,+542346432098,arquijlc@hotmail.com
14055911,Alberto del Viso,00044097,True,,,Buenos Aires|Bahía Blanca,Av Alem,888,,-38.721,-62.272,Bahía Blanca - Buenos Aires,(0291) 451 - 1062,+542914511062,
14066073,Chiappino Daniel,00230859,True,,,Buenos Aires|La Plata,9,14,PB,-34.90269,-57.970676,La Plata - Buenos Aires,(0221) 423 - 3622,+542214233622,
14168226,Alesandrini Lorena,01382063,True,,,Buenos Aires|Adrogué,J M Estrada,205,,-34.79296,-58.394592,Adrogué - Buenos Aires,(011) 4294 - 1557,+541142941557,
14174880,Arquitecto Claudio Larriviere,21518400,True,,,Buenos Aires|Hurlingham,CASTRO BARROS 446,,,,,Hurlingham - Buenos Aires,(011) 4665 - 1996,+541146651996,
14174979,Arq. Susana Di Mestico,21534159,True,,,Buenos Aires|Villa Sarmiento,Emilio Lamarco 2175 Buenos Aires CP 1714,,,,,Villa Sarmiento - Buenos Aires,(011) 4658 - 9277,+541146589277,arqdi_mestico@hotmail.com
14178872,Hector Chevalier,01404977,True,,,Buenos Aires|Bahía Blanca,Belgrano,1035,PB,-38.710442,-62.253362,Bahía Blanca - Buenos Aires,(0291) 454 - 0849,+542914540849,
14178873,Jorge Gismondi,01404978,True,,,Buenos Aires|Bahía Blanca,Salta,450,PB,-38.706754,-62.268396,Bahía Blanca - Buenos Aires,(0291) 453 - 9837,+542914539837,
14318406,Estudio Piña,00044575,True,,http://www.estudiopina.com.ar,Buenos Aires|Bahía Blanca,H Yrigoyen,710,,-38.71116,-62.256855,Bahía Blanca - Buenos Aires,(0291) 451 - 5550,+542914515550,marianopina@estudiopina.com.ar
14343426,Castaño Adriana,21549509,True,,,Buenos Aires|Morón,Int E Grant,268,PB,-34.645802,-58.624204,Morón - Buenos Aires,(011) 4628 - 1583,+541146281583,
14455385,Arquitecto Andreu Jose Maria,21517011,True,,,Buenos Aires|Olavarría,LÍBANO,2653,,-36.88619,-60.315167,Olavarría - Buenos Aires,(02284) 44 - 4929,+542284444929,
14457877,Etchegarary Hector,21518557,True,,,Buenos Aires|Olavarría,LÍBANO,2541,,-36.885456,-60.31605,Olavarría - Buenos Aires,(02284) 44 - 0818,+542284440818,
14460985,Jorge  Daniel  Monzon,21700370,True,,,Buenos Aires|Melchor Romero,Calle 157,S/N,,,,Melchor Romero - Buenos Aires,(0221) 478 - 1487,+542214781487,
14498465,Arqta Silvia Esedin,00711961,True,,,Buenos Aires|Haedo,Concordia,318,,-34.648067,-58.598473,Haedo - Buenos Aires,(011) 4460 - 0621,+541144600621,planosmuni_habilitaciones@yahoo.com.ar
14502390,Apcon SRL - Agrimensura y Proyectos,01213376,True,,,Buenos Aires|Bella Vista,Gelly y Obes,2316,,-34.543144,-58.725945,Bella Vista - Buenos Aires,(011) 4666 - 2520,+541146662520,agrimensurayproyectos@gmail.com
14744800,Arquitecto Luis Elio Caporossi,01404976,True,,,Buenos Aires|Bahía Blanca,Av Alem,444,,-38.709747,-62.263752,Bahía Blanca - Buenos Aires,(0291) 452 - 4349,+542914524349,estudio.caporossi@gmail.com
14773003,Guzman Arquitectura,01262021,True,,http://www.guzmanarquitectura.com.ar/,Buenos Aires|Pilar,Lagrave,837,,-34.456911,-58.916681,Pilar - Buenos Aires,(0230) 442 - 9352,+542304429352,guzmanarquitectura@yahoo.com.ar
14777827,Alfaro Rossi Arquitectos,21922483,True,,,Buenos Aires|La Plata,46,2134,,-34.942028,-57.984352,La Plata - Buenos Aires,(0221) 479 - 5941,+542214795941,info@alfaro-rossi.com.ar
14853863,Granato Javier,21913626,True,,,Buenos Aires|Cañuelas,25 DE MAYO,1370,,,,Cañuelas - Buenos Aires,(02226) 43 - 1098,+542226431098,
15221101,Macroinstalaciones SRL,00335044,True,,www.macroinstalaciones.com.ar,Buenos Aires|Lanús,Pico,947,PB,-34.716323,-58.358976,Lanús - Buenos Aires,(011) 4246 - 4557,+541142464557,ventas@macroinstalaciones.com.ar
15221224,Fersan y Asociados SRL,01206598,True,,www.fersansrl.com.ar,Buenos Aires|Lanús,Av Dip M R Pedrera,1551,,-34.68529,-58.40489,Lanús - Buenos Aires,(011) 4208 - 9461,+541142089461,fersansrl@yahoo.com.ar
15222463,Del Bello Maria Claudia,00958816,True,,,Buenos Aires|Quilmes,San Lorenzo,185,,-34.713175,-58.264035,Quilmes - Buenos Aires,(011) 15 - 5143 - 2293,+5491151432293,
15662338,Jorge Alberto Noval,00365904,True,,,Buenos Aires|San Justo,Entre Ríos,2942,,-34.675583,-58.560955,San Justo - Buenos Aires,(011) 4484 - 9805,+541144849805,
15846053,Battaglia Graciela I,00229496,True,,,Buenos Aires|La Plata,57,723,,-34.92072,-57.947403,La Plata - Buenos Aires,(0221) 421 - 9935,+542214219935,
15852097,Masuello Mario B,00216332,True,,,Buenos Aires|Chivilcoy,9 De Julio,220,,-34.894,-60.023,Chivilcoy - Buenos Aires,(02346) 42 - 1217,+542346421217,
15925556,Maria Elena Suttora,01404983,True,,,Buenos Aires|Bahía Blanca,Alsina,1479,PB,-38.70611,-62.249835,Bahía Blanca - Buenos Aires,(0291) 454 - 6829,+542914546829,
15928820,Marsili Luciana,21570202,True,,,Buenos Aires|La Plata,63,1368,2,-34.93797,-57.95407,La Plata - Buenos Aires,(0221) 453 - 5589,+542214535589,lmarsili@yahoo.com
15928846,Estudio de Arquitectura Roberto y Tomas Reeves,00709733,True,,,Buenos Aires|Chascomús,R Escalada,267,,-35.574783,-58.014595,Chascomús - Buenos Aires,(02241) 42 - 3737,+542241423737,
15938794,Cg Estudio de Arquitectura,21499554,True,,,Buenos Aires|Pilar,L López,1114,,-34.459484,-58.920456,Pilar - Buenos Aires,(0230) 437 - 3876,+542304373876,cesar_gorosito@yahoo.com.ar
14123962,Matone Arquitectos,00351454,True,,,Buenos Aires|Adrogué,Diag Brown,1769,1,-34.799255,-58.380325,Adrogué - Buenos Aires,(011) 4294 - 0039,+541142940039,
14754262,Solares de Moreno,21917541,True,,http://www.solaresdemoreno.com.ar/,Buenos Aires|Moreno,Rvdo Pdre Ansaldo,600,,-34.652916,-58.80359,Moreno - Buenos Aires,(011) 2008 - 0397,+541120080397,
15098538,Estudio Forma,21959169,True,,http://www.estudioforma.com.ar/,Buenos Aires|Pilar,La Pampa,2673,,-34.479378,-58.892696,Pilar - Buenos Aires,(011) 15 - 3043 - 1534,+5491130431534,infoestudioforma@gmail.com
12554093,Gabellini Rey,21534741,True,,www.gabellinirey.com.ar,Buenos Aires|Quilmes,Conesa,281,PB,-34.71748,-58.25866,Quilmes - Buenos Aires,(011) 4254 - 6143,+541142546143,info@gabellinirey.com.ar
15623195,Estudio Sergio Poli,21237050,True,,,Buenos Aires|Quilmes,Pringles,851,,-34.72247,-58.249397,Quilmes - Buenos Aires,(011) 4253 - 0138,+541142530138,
13630536,Estudio Dg,21735184,True,,,Buenos Aires|Burzaco,A Alsina,1310,PB,-34.82581,-58.384773,Burzaco - Buenos Aires,(011) 4238 - 9413,+541142389413,estudio.grossi@hotmail.com
11472199,Alfaro Hector Raul,,True,,,Buenos Aires|Azul,Av Pellegrini,1835,,-36.783416748046875,-59.849998474121094,Azul - Buenos Aires,(02281) 43 - 2697,+542281432697,
11551629,Norma Greco Arquitecta,,True,,,Buenos Aires|Mar del Plata,Almafuerte,3355,,-38.013824462890625,-57.56938552856445,Mar del Plata - Buenos Aires,(0223) 474 - 4633,+542234744633,
11557775,Marques Juan J,,True,,,Buenos Aires|Monte Grande,General Rodríguez,322,,-34.816856384277344,-58.46435546875,Monte Grande - Buenos Aires,(011) 4367 - 9345,+541143679345,
11690111,Estudios Profesionales,,True,,,Buenos Aires|Hurlingham,Gral J A Roca,1286,PB,-34.588653564453125,-58.6287841796875,Hurlingham - Buenos Aires,(011) 4662 - 5791,+541146625791,
11733919,Ernesto Arado,,True,,,Buenos Aires|Mar del Plata,Av P Luro,2976,1,-37.99599838256836,-57.549827575683594,Mar del Plata - Buenos Aires,(0223) 493 - 3378,+542234933378,
11889690,Diego Iparraire,,True,,,Buenos Aires|Mar del Plata,Falucho,2461,2,,,Mar del Plata - Buenos Aires,(0223) 475 - 9506,+542234759506,
12116989,Bartolucci Angel H,,True,,,Buenos Aires|Mar del Plata,Bolívar,3514,,-37.99782943725586,-57.55878448486328,Mar del Plata - Buenos Aires,(0223) 494 - 6765,+542234946765,
10451801,Vocaturo,,True,,,Buenos Aires|Luján,Av España,1399,,-34.577,-59.106,Luján - Buenos Aires,(02323) 42 - 1303,+542323421303,
10744344,Ramon Uranga,,True,,,Buenos Aires|Pinamar,Apolo,361,,-37.118,-56.865,Pinamar - Buenos Aires,(02254) 48 - 5931,+542254485931,
10745610,Osorio Marcela S.,,True,,,Buenos Aires|Temperley,M Fernández,915,PB,-34.777,-58.411,Temperley - Buenos Aires,(011) 4298 - 8589,+541142988589,
10773388,Caccavo Fernando Miguel- Arquitecto,,True,,,Buenos Aires|Coronel Suárez,Sarmiento,528,,-37.466,-61.933,Coronel Suárez - Buenos Aires,(02926) 42 - 2586,+542926422586,
10796735,Alberto Maria Ortiz,,True,,,Buenos Aires|San Isidro,Martin Y Omar,129,2,-34.471,-58.512,San Isidro - Buenos Aires,(011) 4743 - 7200,+541147437200,aortizyasoc@yahoo.com.ar
10803628,Sirolli Julian C,,True,,,Buenos Aires|Morón,Av Rivadavia,18447,1,-34.649,-58.623,Morón - Buenos Aires,(011) 4489 - 5629,+541144895629,
10873963,Borrelli - Guerra,,True,,,Buenos Aires|Villa Gesell,Paseo 117,988,,-37.249,-56.955,Villa Gesell - Buenos Aires,(02255) 46 - 0478,+542255460478,
10888708,Juarez Gabriel L,,True,,,Buenos Aires|Berazategui,Calle 15 A,4833,PB,-34.763,-58.208,Berazategui - Buenos Aires,(011) 4226 - 5391,+541142265391,juarezarq@yahoo.com.ar
10900584,Bg Arquitectura,,True,,,Buenos Aires|Merlo,Guayaquil,831,,-34.685,-58.728,Merlo - Buenos Aires,(0220) 483 - 4662,+542204834662,
10917964,Ciurca Carlos,,True,,,Buenos Aires|Pinamar,Sub Sta Fe E,1545,,,,Pinamar - Buenos Aires,(02254) 48 - 5287,+542254485287,
10918949,Gallego Construcciones Arquitectos,,True,,,Buenos Aires|Punta Alta,Bouchard,273,,-38.883,-62.066,Punta Alta - Buenos Aires,(02932) 42 - 1906,+542932421906,
10946654,Adelaida a Vuoso,,True,,,Buenos Aires|Ezeiza,Formosa,653,2,-34.855,-58.503,Ezeiza - Buenos Aires,(011) 5075 - 0444,+541150750444,
12554152,Os Arquitectura,,True,,,Buenos Aires|Adrogué,E OBLIGADO,1322,,,,Adrogué - Buenos Aires,(011) 4293 - 8311,+541142938311,
12554154,Silvia V. Lonfa,,True,,,Buenos Aires|Monte Grande,CHIMONDEGUI,412,,,,Monte Grande - Buenos Aires,(011) 4290 - 2326,+541142902326,
12554356,Brandoni Monica,,True,,,Buenos Aires|Quilmes,LA RIOJA,273,,,,Quilmes - Buenos Aires,(011) 4252 - 3219,+541142523219,
12554526,Agustin Calo,,True,,,Buenos Aires|Llavallol,Olavarría,536,PB,,,Llavallol - Buenos Aires,(011) 4231 - 3524,+541142313524,
12554529,Carolini Roberto,,True,,,Buenos Aires|Berazategui,Calle 150,2277,PB,,,Berazategui - Buenos Aires,(011) 4216 - 6611,+541142166611,
12729956,Canissa Alberto Miguel,,True,,,Buenos Aires|Pinamar,Av E Shaw,398,,-37.118813,-56.86568,Pinamar - Buenos Aires,(02254) 48 - 8400,+542254488400,
12750424,Gustavo Scenna,,True,,,Buenos Aires|Mar del Plata,Chaco,1761,,,,Mar del Plata - Buenos Aires,(0223) 15 - 424 - 8087,+5492234248087,
12800090,Valeria Fisichella,,True,,,Buenos Aires|Mar del Plata,La Rioja,1762,,,,Mar del Plata - Buenos Aires,(0223) 15 - 534 - 1864,+5492235341864,
12856859,Estudio Javier Calamante & Asoc,,True,,,Buenos Aires|Tandil,Maipú,710,1,-37.329,-59.13191,Tandil - Buenos Aires,(0249) 443 - 7034,+542494437034,
12863568,Palacio Estudio de Arquitectura,,True,,,Buenos Aires|Junín,Borchex,299,,-34.59838,-60.935642,Junín - Buenos Aires,(0236) 443 - 0456,+542364430456,
12992162,Osvaldo R Fons,,True,,,Buenos Aires|9 de Julio,E Perón 930,,,,,9 de Julio - Buenos Aires,(02317) 52 - 4543,+542317524543,
13003725,Gas Natural,,True,,,Buenos Aires|Pinamar,De La Trucha,1633,,-37.11898,-56.86568,Pinamar - Buenos Aires,(02254) 48 - 0830,+542254480830,
13448637,Alberto Fernando Diaz Arquitecto,,True,,,Buenos Aires|Lanús,Ministro Brin,2994,1,-34.707592,-58.395588,Lanús - Buenos Aires,(011) 4240 - 3372,+541142403372,
13625783,Arquitecto,,True,,,Buenos Aires|La Plata,18,570,PB,-34.92044,-57.967266,La Plata - Buenos Aires,(0221) 15 - 599 - 9171,+5492215999171,ferdelaiglesia@hotmail.com
13677609,Is. Arquitectura,,True,,http://www.arquitecturais.com.ar,Buenos Aires|La Plata,49,1534,1,-34.931877,-57.96961,La Plata - Buenos Aires,(0221) 417 - 6961,+542214176961,arquitectura.is@gmail.com
13799828,Borgogno Arquitectura /Asoc.,,True,,,Buenos Aires|Mar del Plata,20 De Septiembre,1848,PB,-37.99553,-57.5578,Mar del Plata - Buenos Aires,(0223) 15 - 421 - 8753,+5492234218753,rodrigo_borgogno@hotmail.com
13816397,Falbo Julio - Arquitecto,,True,,,Buenos Aires|Pinamar,Gúlliver,1320,,-37.118813,-56.86568,Pinamar - Buenos Aires,(02254) 48 - 4375,+542254484375,
13816414,Goncalves Mario - Arquitecto,,True,,,Buenos Aires|Pinamar,Av Langostinos,495,,-37.11898,-56.86568,Pinamar - Buenos Aires,(02254) 48 - 5614,+542254485614,
14931342,Arq Alicia Alvarez Iturregui y Asoc Estudio de Arquitectura,,True,,www.alvareziturregui.com.ar,Buenos Aires|Ostende,Av La Plata,276,,-37.149628,-56.88514,Ostende - Buenos Aires,(02254) 49 - 0573,+542254490573,alalva@telpin.com.ar
14953486,Hb Arquitectura,,True,,,Buenos Aires|Haedo,Av Pte Perón,1406,,-34.637028,-58.58455,Haedo - Buenos Aires,(011) 15 - 5106 - 4862,+5491151064862,
15018868,Carolina Klein,00746668,True,,,Buenos Aires|Alberti,Av Vaccarezza,235,,,,Alberti - Buenos Aires,(02346) 47 - 1709,+542346471709,
15023771,Berra - Cavallucci Arquitectos Planos - Proyectos - Direccio,21363076,True,,,Buenos Aires|Mar del Plata,Córdoba,3751,1,-38.015808,-57.559957,Mar del Plata - Buenos Aires,(0223) 491 - 5009,+542234915009,
15183291,Negri Luis F Estudio Tecnico,21629947,True,,,Buenos Aires|Lobos,Cardoner,530,,-35.166584,-59.083332,Lobos - Buenos Aires,(02227) 42 - 3483,+542227423483,luisfnegri@gmail.com
15202453,Jorge Colimodio,00509385,True,,,Buenos Aires|Parque Camet,Av C Tejedor,2429,,-37.954268,-57.544426,Parque Camet - Buenos Aires,(0223) 479 - 9476,+542234799476,
15203666,Colegio de Arquitectos de la Provincia de Buenos Ai,00357593,True,,,Buenos Aires|San Miguel,Peluffo,1248,,-34.547077,-58.71071,San Miguel - Buenos Aires,(011) 4451 - 7819,+541144517819,
15207721,Pedroni Daniel Arquitecto,00542744,True,,,Buenos Aires|Monte Hermoso,El colibri 530,,,,,Monte Hermoso - Buenos Aires,(02921) 48 - 1450,+542921481450,
14894581,Fontana Analia Arquitecta,00726329,True,,,Buenos Aires|Pinamar,Nautilus,2325,,-37.11898,-56.86568,Pinamar - Buenos Aires,(02254) 49 - 7370,+542254497370,fontana@telpin.com.ar
14894433,Dematteis Alejandro - Arquitecto,00702720,True,,,Buenos Aires|Pinamar,Av E Shaw,15,,-37.11898,-56.86568,Pinamar - Buenos Aires,(02254) 48 - 2051,+542254482051,
15236656,Gustavo Daniel Gomez - Arquitectos,00736584,True,,,Buenos Aires|Villa Gesell,Avenida 5,687,,-37.249508,-56.955055,Villa Gesell - Buenos Aires,(02255) 46 - 0328,+542255460328,gustavoarquitectura@hotmail.com
10453450,Cedro Azul Group,00736581,True,,,Buenos Aires|Villa Gesell,Calle 33,,,,,Villa Gesell - Buenos Aires,(02255) 45 - 4110,+542255454110,
13745265,Jorge Alberto Mignolo,21750258,True,,,Buenos Aires|Castelar,F L Bernárdez,3895,,-34.68117,-58.664574,Castelar - Buenos Aires,(011) 15 - 6307 - 3945,+5491163073945,
15260931,Berge & Saladino Ingenieria y Arquitectura Integral,00538689,True,,,Buenos Aires|Bahía Blanca,Salta,281,,-38.70936,-62.27054,Bahía Blanca - Buenos Aires,(0291) 486 - 0501,+542914860501,
15263768,Abside SRL,00780801,True,,,Buenos Aires|La Plata,11,41,PB,-34.90496,-57.972325,La Plata - Buenos Aires,(0221) 489 - 8104,+542214898104,
15263844,Estudio H.Avila Arquitectura Agrimensura,21970845,True,,,Buenos Aires|San Miguel,D F Sarmiento,1675,1,-34.542248,-58.713757,San Miguel - Buenos Aires,(011) 15 - 6988 - 2729,+5491169882729,estudiohavila@gmail.com
15267344,Arquitecta Ivana Pomiro,21784676,True,,,Buenos Aires|Sarandí,Av B Mitre,3242,1,-34.680904,-58.34479,Sarandí - Buenos Aires,(011) 15 - 3463 - 6661,+5491134636661,
14894441,Melman & Asociados,00092641,True,,,Buenos Aires|Pinamar,Jason,651,,-37.11898,-56.86568,Pinamar - Buenos Aires,(02254) 48 - 2917,+542254482917,melbur@telpin.com.ar
14058666,Pablo Vilas & Asoc.,00092471,True,,http://www.pablovilasyasoc.com.ar,Buenos Aires|Pinamar,Jason,1027,,-37.11898,-56.86568,Pinamar - Buenos Aires,(02254) 48 - 0653,+542254480653,
15325221,Arq Esteban Tranier,21980213,True,,,Buenos Aires|General Villegas,9 De Julio,135,,-35.033417,-63.033333,General Villegas - Buenos Aires,(011) 15 - 6020 - 9564,+5491160209564,estebantranier@gmail.com
15559856,Alvarez Marta Victoria y Asociados,21596555,True,,,Buenos Aires|Mar del Plata,Chaco,1755,,-37.990677,-57.56541,Mar del Plata - Buenos Aires,(0223) 474 - 1814,+542234741814,
15586555,Patricio Cantando,01404333,True,,,Buenos Aires|Balcarce,Calle 34,720,,-37.866585,-58.25,Balcarce - Buenos Aires,(02266) 42 - 2324,+542266422324,
15589227,Alvarado Carlos Alberto,21463195,True,,,Buenos Aires|Florencio Varela,25 De Mayo,2675,,-34.803654,-58.280243,Florencio Varela - Buenos Aires,(011) 4237 - 1738,+541142371738,carlosalvaradommo@hotmail.com
15609473,Sergio Bressi,00608821,True,,,Buenos Aires|Lanús,Dr D N Basavilbaso,1914,PB,-34.70925,-58.38684,Lanús - Buenos Aires,(011) 4247 - 3003,+541142473003,
15614482,Monica Ambiela,21197202,True,,,Buenos Aires|Luján,Héroes Del Sur,1148,,-34.576626,-59.111343,Luján - Buenos Aires,(02323) 42 - 0270,+542323420270,monicambiela@hotmail.com
15623108,Estudio  Shannon,01186165,True,,,Buenos Aires|Martínez,Arenales,2059,,-34.48895,-58.498215,Martínez - Buenos Aires,(011) 4793 - 2178,+541147932178,
15629367,Cinthia Irigoyen Arquitectura,21997381,True,,www.cinthiairigoyen.com.ar,Buenos Aires|Haedo,Carlos Gardel 785,,,,,Haedo - Buenos Aires,(011) 15 - 3036 - 4660,+5491130364660,arq.irigoyenc@gmail.com
15644221,Leandro Lameiro Arquitecto,22037177,True,,www.arqleandrolameiro.wix.com/arqlameiro,Buenos Aires|Marcos Paz,Rodríguez Peña,270,,-34.776604,-58.83529,Marcos Paz - Buenos Aires,(011) 15 - 6431 - 9645,+5491164319645,arqleandrolameiro@mail.com
15660080,Ruben Garcia-  Fernando Noya Ingeniero,00657657,True,,,Buenos Aires|Villa Gesell,Av Bs Aires,752,,-37.24934,-56.955055,Villa Gesell - Buenos Aires,(02255) 46 - 0593,+542255460593,
15660267,Gustavo Leonardo Horbulewicz,21169270,True,,,Buenos Aires|Pinamar,Av 3 Carabelas,1030,,-37.118813,-56.86568,Pinamar - Buenos Aires,(02254) 40 - 3050,+542254403050,
15660296,Arq Laura Bernaola,21572647,True,,www.arqlaurabernaola.com.ar,Buenos Aires|Pinamar,Av Constitución,523,,-37.11898,-56.86568,Pinamar - Buenos Aires,(02254) 48 - 1560,+542254481560,arq_lbernaola@telpin.com.ar
15660318,Estudio,00783587,True,,,Buenos Aires|Pinamar,De L Gaviotas,44,,-37.118813,-56.86568,Pinamar - Buenos Aires,(02254) 48 - 7983,+542254487983,
15660319,Canissa Alberto - Arquitecto,00702387,True,,,Buenos Aires|Pinamar,De L Calandria,915,,-37.11898,-56.86568,Pinamar - Buenos Aires,(02254) 48 - 8188,+542254488188,
15677560,Javier Casset,21129271,True,,,Buenos Aires|Luján,Humberto Primo,1355,,-34.570854,-59.112965,Luján - Buenos Aires,(02323) 42 - 0921,+542323420921,
15717363,Adriana Tineo Falbo,00702868,True,,,Buenos Aires|Pinamar,Gúlliver,1320,,-37.118813,-56.86568,Pinamar - Buenos Aires,(02254) 48 - 2985,+542254482985,
15719165,Cmv Arquitectos,00704326,True,,www.cmvarq.com.ar,Buenos Aires|Pinamar,Gaviota,48,,-37.118813,-56.86568,Pinamar - Buenos Aires,(02254) 48 - 3688,+542254483688,info@cmvarq.com.ar
15722512,Action Time Arquitectura Publicitaria,01178914,True,,www.actiontime.com.ar,Buenos Aires|Olivos,San Lorenzo,3385,PB,-34.512623,-58.51232,Olivos - Buenos Aires,(011) 4799 - 0330,+541147990330,action@actiontime.com.ar
15732076,Luciana Di Pego,21447097,True,,,Buenos Aires|Pinamar,Del Zorzal,618,,-37.118813,-56.86568,Pinamar - Buenos Aires,(02254) 40 - 3324,+542254403324,
15733360,Vicente Pablo Corbacho,21169256,True,,,Buenos Aires|Valeria del Mar,Cnel Rosales,766,,,,Valeria del Mar - Buenos Aires,(02254) 48 - 7290,+542254487290,
15768237,Hugo Pouso,01399506,True,,,Buenos Aires|Cariló,Boyero,1470,,-37.17629,-56.914997,Cariló - Buenos Aires,(02254) 57 - 0801,+542254570801,
14244034,Berk Jeffrey Juan,,True,,,Buenos Aires|Olivos,Tucuman,2762,,-34.509056,-58.48941,Olivos - Buenos Aires,(011) 4799 - 2950,+541147992950,
14244322,Caratti y Ferrero,,True,,,Buenos Aires|Junín,ALIAS,125,,,,Junín - Buenos Aires,(0236) 443 - 3655,+542364433655,
14255962,Todo House,,True,,www.todohouse.com.ar,Buenos Aires|Martínez,Cangallo,1290,,-34.500114,-58.536728,Martínez - Buenos Aires,(011) 4836 - 3200,+541148363200,todohouse@gmail.com
14135651,Fattori Guillermo a,,True,,,Buenos Aires|La Plata,CALLE 8,3776,,-34.957162,-57.895324,La Plata - Buenos Aires,(0221) 530 - 7217,+542215307217,fattoridesing@gmail.com
14334744,Casa Neuen,,True,,http://www.casa-neuen.com.ar,Buenos Aires|Llavallol,F L Wright,367,,-34.796352,-58.41471,Llavallol - Buenos Aires,(011) 4231 - 9282,+541142319282,info@casa-neuen.com.ar
10835322,Eduardo Colombi,,True,,,Buenos Aires|Quilmes,Calle 320,2551,PA,-34.743,-58.281,Quilmes - Buenos Aires,(011) 4280 - 1687,+541142801687,
14237663,Bojko Arquitectura,,True,,www.bojko.com.ar,Buenos Aires|Lanús,Gobernador Udaondo,2789,,-34.703632,-58.403103,Lanús - Buenos Aires,(011) 15 - 6576 - 1417,+5491165761417,info@damianbojko.com.ar
14416585,"Estudio de Arquitectura ""Tu Proyecto Terminado""",,True,,,Buenos Aires|San Antonio de Padua,Constitución,467,,-34.673912,-58.731712,San Antonio de Padua - Buenos Aires,(0220) 486 - 6787,+542204866787,
14435284,Alfamar Administradora,,True,,,Buenos Aires|Mar del Plata,La Rioja,2396,,-38.003006,-57.555107,Mar del Plata - Buenos Aires,(0223) 493 - 1835,+542234931835,
14447222,Estudio Metrika,,True,,,Buenos Aires|La Plata,61,1900,,-34.94693,-57.966778,La Plata - Buenos Aires,(0221) 15 - 534 - 8155,+5492215348155,arx3002@gmail.com
13549458,Bruno y Ladaga SA,,True,,,Buenos Aires|Chacabuco,Catamarca,121,,-34.637,-60.47,Chacabuco - Buenos Aires,(02352) 42 - 8289,+542352428289,
13562169,Alejandra Burella- Marina Flosi,,True,,,Buenos Aires|Luján,J D De Solís,2086,,-34.563264,-59.097875,Luján - Buenos Aires,(02323) 43 - 1595,+542323431595,
13616850,Arquitectura Baronio - Capomassi,,True,,www.baroniocapomassi.com.ar,Buenos Aires|Bahía Blanca,Lamadrid,32,,-38.714367,-62.257681,Bahía Blanca - Buenos Aires,(0291) 456 - 3381,+542914563381,arquitectura@baroniocapomassi.com.ar
14065716,Sorrentino Fabricio J,,True,,,Buenos Aires|Pergamino,Biscayart,271,,-33.903,-60.572,Pergamino - Buenos Aires,(02477) 42 - 2810,+542477422810,
14068247,Perez Pradal Jorge a,,True,,,Buenos Aires|La Plata,12,364,1,-34.911,-57.965,La Plata - Buenos Aires,(0221) 482 - 2784,+542214822784,
14077552,Arq. Pablo Vendramin Proyecto y Direccion,,True,,,Buenos Aires|San Justo,H Yrigoyen,1965,PA,-34.674732,-58.556775,San Justo - Buenos Aires,(011) 4482 - 1323,+541144821323,
14084658,Maria F Rica,,True,,,Buenos Aires|La Plata,33,359,,-34.896,-57.962,La Plata - Buenos Aires,(0221) 489 - 3719,+542214893719,
14178552,"Basualdo, Guillermo Gustavo",,True,,,Buenos Aires|Bahía Blanca,Lavalle,465,1,-38.717272,-62.256645,Bahía Blanca - Buenos Aires,(0291) 451 - 4349,+542914514349,
14455004,Ps Arq Pablo Sanchez Arquitecto,,True,,,Buenos Aires|Canning,Ruta 58 749,,,-34.84892,-58.50504,Canning - Buenos Aires,(011) 4389 - 2355,+541143892355,
14455445,Arq Rosana Gomez,,True,,,Buenos Aires|San Miguel,Av Primera Junta,395,,-34.526275,-58.717145,San Miguel - Buenos Aires,(011) 4667 - 3889,+541146673889,
14455456,Estudio Arq Claudio Benacchio - Corvalan Jose,,True,,,Buenos Aires|Ciudadela,San Martín,213,,-34.642784,-58.541035,Ciudadela - Buenos Aires,(011) 4657 - 6592,+541146576592,
14455478,Alberto Jose Vitale,,True,,,Buenos Aires|Mar del Plata,MATHEU,3100,,-38.013779,-57.565359,Mar del Plata - Buenos Aires,(0223) 472 - 0371,+542234720371,
14457960,Adriana Belaunzaran,,True,,,Buenos Aires|Parque Camet,J Mariani,5632,,-37.959092,-57.557525,Parque Camet - Buenos Aires,(0223) 479 - 9353,+542234799353,
14457961,Marcelo del Rio,,True,,,Buenos Aires|Parque Camet,J V González,741,,-37.961524,-57.567331,Parque Camet - Buenos Aires,(0223) 471 - 4616,+542234714616,
14457968,Arqta Adriana Mabel Fernandez,,True,,,Buenos Aires|Villa Adelina,Thames,541,,,,Villa Adelina - Buenos Aires,(011) 15 - 5567 - 4760,+5491155674760,
14453197,German Gonzales,,True,,,Buenos Aires|Lincoln,Pueyrredón,691,,-34.866753,-61.55,Lincoln - Buenos Aires,(02355) 15 - 50 - 6750,+5492355506750,
13060763,Maximiliano Bolinches,,True,,,Buenos Aires|Mar del Plata,Santa Fe,2450,7,-38.006546,-57.549606,Mar del Plata - Buenos Aires,(0223) 491 - 4450,+542234914450,
14514556,Ras Arquitectura,,True,,www.rasarquitectura.com.ar,Buenos Aires|Mar del Plata,Olavarría,3421,2,-38.01924,-57.546149,Mar del Plata - Buenos Aires,(0223) 451 - 6038,+542234516038,
14526642,Casa Por Casa,,True,,www.casaporcasa.com.ar,Buenos Aires|Bella Vista,Av Lib San Martín,1990,,-34.56732,-58.691666,Bella Vista - Buenos Aires,(011) 4666 - 0934,+541146660934,
14602469,Lamonica Osvaldo y Asoc - Arquitecto,,True,,http://www.arqosvaldolamonica.com.ar,Buenos Aires|Pilar,A M Cervantes,4929,,-34.627632,-58.502213,Pilar - Buenos Aires,(0230) 442 - 3472,+542304423472,
13741112,Rivas Santos  Juan Carlos,,True,,,Buenos Aires|San Francisco Solano,AV FC PCIAL 5447,,,,,San Francisco Solano - Buenos Aires,(011) 4213 - 0558,+541142130558,
14579943,Toledo Monica Isabel,,True,,,Buenos Aires|Isidro Casanova,Av J M D Rosas,6780,PB,-34.70278,-58.581345,Isidro Casanova - Buenos Aires,(011) 4669 - 6320,+541146696320,
14705448,Arquitecta Maria Rita Annan,,True,,,Buenos Aires|Pergamino,Merced,452,,-33.899918,-60.583332,Pergamino - Buenos Aires,(02477) 15 - 56 - 1647,+5492477561647,ritaannan@gmail.com
14706345,Passaro Jorge,,True,,,Buenos Aires|Chascomús,B Mitre,226,,-36.31658,-57.666668,Chascomús - Buenos Aires,(02241) 15 - 67 - 8244,+5492241678244,
14712236,Arquitecta Silvia Rodriguez,,True,,,Buenos Aires|Miramar,Calle 32,438,,-38.249916,-57.833332,Miramar - Buenos Aires,(02291) 42 - 1887,+542291421887,
10645504,Mora Varela,,True,,,Buenos Aires|General Pacheco,B°T Del Lago 2,,,-34.4538,-58.6424,General Pacheco - Buenos Aires,(011) 4101 - 4495,+541141014495,
10858546,Estudio de Arquitectura Arq Horacio Correa Marconi,,True,,,Buenos Aires|Chivilcoy,Av Soarez,352,,-34.9,-60.016,Chivilcoy - Buenos Aires,(02346) 42 - 6632,+542346426632,
11501104,Rafael Boccardoro -Eugenia Grinspun,,True,,,Buenos Aires|Villa Gesell,Paseo 113,1271,,,,Villa Gesell - Buenos Aires,(02255) 46 - 2683,+542255462683,
11606214,Estudio 28,,True,,www.estudio28.com.ar,Buenos Aires|Adrogué,Amenedo,434,1,,,Adrogué - Buenos Aires,(011) 3527 - 0273,+541135270273,
14073190,Quimica Clor,,True,,,Buenos Aires|Quilmes,Calle 868,02125,PB,-34.80505,-58.236675,Quilmes - Buenos Aires,(011) 4200 - 8899,+541142008899,
14080990,Arq Gabriela Carballo,,True,,,Buenos Aires|Adrogué,T Taylor,1142,PB,-34.803454,-58.386962,Adrogué - Buenos Aires,(011) 4293 - 2818,+541142932818,
14182177,Alfredo Sureda,,True,,,Buenos Aires|Mar del Plata,Gral Roca,1840,,-38.01612,-57.549576,Mar del Plata - Buenos Aires,(0223) 494 - 9411,+542234949411,
14732436,De Cespedes/ Castelo,,True,,,Buenos Aires|Tortuguitas,C Brochero,4200,,,,Tortuguitas - Buenos Aires,(02320) 49 - 2532,+542320492532,
14744659,Estudio de Arquitectura Bensi - Materazzi,,True,,,Buenos Aires|Mar del Plata,B Mitre,3234,,-38.01075,-57.55864,Mar del Plata - Buenos Aires,(0223) 493 - 0501,+542234930501,
14771554,Moire Arquitectos,,True,,http://www.moirearqs.com.ar/,Buenos Aires|Mar del Plata,San Juan,253,2,-37.97956,-57.55365,Mar del Plata - Buenos Aires,(0223) 15 - 528 - 1182,+5492235281182,moirearqs@gmail.com
14777826,Estudio Borrelli & Borrelli,,True,,,Buenos Aires|La Plata,9,1311,,,,La Plata - Buenos Aires,(0221) 15 - 560 - 3317,+5492215603317,
14809436,Javier Aleman Arquitecto,,True,,http://www.jalemanarquitecto.com.ar/,Buenos Aires|Bella Vista,Moine,2150,,-34.56954,-58.6913,Bella Vista - Buenos Aires,(011) 4666 - 9024,+541146669024,jaleman@jalemanarquitecto.com.ar
14844841,Mario H Urlezaga & Asoc D + G en Obras de Arquitectura,,True,,,Buenos Aires|Olavarría,Bolívar,2937,1,-36.884617,-60.30974,Olavarría - Buenos Aires,(02284) 42 - 8355,+542284428355,
14854023,Alberto Lopez,,True,,,Buenos Aires|Mar del Plata,T Bronzini,2356,,-37.988476,-57.583435,Mar del Plata - Buenos Aires,(0223) 15 - 583 - 5743,+5492235835743,cedroazul@gmail.com
14865236,Antonela del Rosario Zucchella,,True,,,Buenos Aires|San Nicolás,San José,538,,-33.333336,-60.22824,San Nicolás - Buenos Aires,(0336) 15 - 421 - 2828,+5493364212828,
14875190,Boen SRL Empresa Constructora,,True,,,Buenos Aires|Mar del Plata,Catamarca,2076,4,-37.999847,-57.55406,Mar del Plata - Buenos Aires,(0223) 491 - 8646,+542234918646,
14894379,Estudio Ladaga Ruarte,,True,,www.arquitecturalr.com.ar,Buenos Aires|Pinamar,Av E Shaw,2018,,-37.118813,-56.86568,Pinamar - Buenos Aires,(02254) 40 - 5606,+542254405606,info@arquitecturalr.com.ar
14894407,Cavallini Valeria Paula,,True,,,Buenos Aires|Pinamar,DE LA TRUCHA,1893,,-37.102479,-56.873867,Pinamar - Buenos Aires,(02254) 40 - 9495,+542254409495,
14894458,Juan Manuel Zapata,,True,,www.arqjuanzapata.blogspot.com,Buenos Aires|Pinamar,Cul De Sac Selene 433,,,,,Pinamar - Buenos Aires,(02254) 48 - 3567,+542254483567,
14894592,Gascon,,True,,,Buenos Aires|Pinamar,Jason,1083,,-37.11898,-56.86568,Pinamar - Buenos Aires,(02254) 49 - 8286,+542254498286,gascon@telpin.com.ar
14894850,Arquitectura Rakita - Matteoli y Asoc,,True,,http://www.rm-arquitectos.com.ar,Buenos Aires|San Bernardo,S Del Estero,3236,,-36.69499,-56.68864,San Bernardo - Buenos Aires,(02257) 46 - 1685,+542257461685,
14894851,Estudio de Arquitectura Alberto F Oviedo,,True,,,Buenos Aires|San Bernardo,Strobell,444,PB,-36.69499,-56.68864,San Bernardo - Buenos Aires,(02257) 46 - 1725,+542257461725,
14895006,Neptuno Plaza Hotel & Spa + + + +,,True,,www.neptunoplaza.com.ar,Buenos Aires|San Bernardo,J Hernández,313,,-36.695156,-56.68864,San Bernardo - Buenos Aires,(02257) 46 - 1789,+542257461789,info@neptunoplaza.com.ar
15773312,Colegio de Arquitectos,00226111,True,,,Buenos Aires|Pergamino,Castelli,573,,-33.900085,-60.583332,Pergamino - Buenos Aires,(02477) 43 - 2691,+542477432691,
15780608,Raul Marinkeff,21169245,True,,,Buenos Aires|Pinamar,De L Escualos 1539,,,,,Pinamar - Buenos Aires,(02254) 48 - 5049,+542254485049,arquiram@hotmail.com
15781606,Mb Duo,22245889,True,,,Buenos Aires|La Plata,MANUEL GONNET S/N,,,,,La Plata - Buenos Aires,(0221) 15 - 604 - 2110,+5492216042110,arqceciliasmb@gmail.com
15785383,Miguel Angel Borgarelli,21215700,True,,,Buenos Aires|Mercedes,Calle 125,626,,,,Mercedes - Buenos Aires,(02324) 43 - 0329,+542324430329,
15786506,Rodolfo Eduardo Gancedo,00702980,True,,,Buenos Aires|Pinamar,Submarino  Sta Fe E 1521,,,,,Pinamar - Buenos Aires,(02254) 48 - 4612,+542254484612,
15803759,Andrea Marcela Di Marco,00658219,True,,,Buenos Aires|Villa Gesell,Avenida 3,451,,-37.249508,-56.955055,Villa Gesell - Buenos Aires,(02255) 46 - 2378,+542255462378,
15827475,Palazzo Lucas Alfonso,21161377,True,,,Buenos Aires|La Plata,61,1208,,-34.933357,-57.95304,La Plata - Buenos Aires,(0221) 453 - 9119,+542214539119,
15859437,Capba,21943428,True,,,Buenos Aires|Tigre,M De Oca,781,,,,Tigre - Buenos Aires,(011) 4749 - 0284,+541147490284,
15859884,Estudio Dimas Rodal,22254137,True,,,Buenos Aires|Pinamar,Jason,350,,-37.118813,-56.86568,Pinamar - Buenos Aires,(02254) 15 - 53 - 1234,+5492254531234,arqdimasrodal@gmail.com
13816322,Arquitecto Audine Sergio,21169242,True,,,Buenos Aires|Ostende,Moreno,638,PB,-37.149628,-56.88514,Ostende - Buenos Aires,(02254) 48 - 0519,+542254480519,sergioaudine@hotmail.com
13636711,Estudio Polla & Asociados Ingeniero Arquitectos,01440981,True,,,Buenos Aires|Bahía Blanca,19 De Mayo,144,,-38.723518,-62.281596,Bahía Blanca - Buenos Aires,(0291) 451 - 9971,+542914519971,estudiopcp@speedy.com.ar
14058684,Hotel Africa,00092639,True,,,Buenos Aires|Pinamar,Libertador S,500,,-37.118813,-56.86568,Pinamar - Buenos Aires,(02254) 49 - 4443,+542254494443,hotelafrica@telpin.com.ar
14108656,Antonio Carrasco Arquitecto,21572648,True,,www.antoniocarrasco.com,Buenos Aires|Pinamar,Jason,1041,,-37.11898,-56.86568,Pinamar - Buenos Aires,(02254) 48 - 0575,+542254480575,info@antoniocarrasco.com
14119585,Arquitectura Gimenez,21363676,True,,www.arquitecturagimenez.com.ar,Buenos Aires|Valentín Alsina,M Ocampo,2588,,-34.68256,-58.41435,Valentín Alsina - Buenos Aires,(011) 2074 - 4876,+541120744876,arq.hernangimenez@hotmail.com
10485837,Diego a Carballo,01490295,True,,,Buenos Aires|Adrogué,C Pellegrini,635,,-34.803253,-58.402927,Adrogué - Buenos Aires,(011) 4294 - 0844,+541142940844,
10557222,Diego Matz,21236742,True,,,Buenos Aires|Lomas de Zamora,Laprida,1585,,-34.757965,-58.419632,Lomas de Zamora - Buenos Aires,(011) 4282 - 4641,+541142824641,
10597458,Francisco de Simone,21240375,True,,,Buenos Aires|El Palomar,Guaraní,1446,,-34.627567,-58.59459,El Palomar - Buenos Aires,(011) 4443 - 4454,+541144434454,
10478187,Garcia Ricardo,01433024,True,,,Buenos Aires|Lomas de Zamora,Arenales,415,,-34.757225,-58.389285,Lomas de Zamora - Buenos Aires,(011) 4245 - 8898,+541142458898,
10824017,Maria Polityko,21188589,True,,,Buenos Aires|Adrogué,Italia,1165,,-34.80421,-58.390325,Adrogué - Buenos Aires,(011) 4293 - 3719,+541142933719,
10855742,Piemontese Gerardo,00379881,True,,,Buenos Aires|El Palomar,E Carriego,1875,,-34.630795,-58.595196,El Palomar - Buenos Aires,(011) 4659 - 9551,+541146599551,
11341779,Lado & Petri,01408996,True,,www.ladopetry.com.ar,Buenos Aires|Hurlingham,Dr C Argerich,1624,,,,Hurlingham - Buenos Aires,(011) 4452 - 5669,+541144525669,estudio@ladopetry.com.ar
11472391,Alejandro D Duarte,21171762,True,,http://www.arquitectoduarte.com.ar,Buenos Aires|Sarandí,E Zeballos,4202,,-34.68703,-58.33443,Sarandí - Buenos Aires,(011) 4353 - 1718,+541143531718,abrilsur@hotmail.com
12051210,Cilley Miguel,21517025,True,,,Buenos Aires|Olavarría,Lavalle,3334,,-36.888166,-60.320338,Olavarría - Buenos Aires,(02284) 42 - 7507,+542284427507,
12113261,Alvarez  Vetrano  Paglilla Arqs.,21543219,True,,,Buenos Aires|Morón,9 DE JULIO,238,1,-34.650897,-58.618429,Morón - Buenos Aires,(011) 4629 - 5641,+541146295641,
12553715,Ea -Estudio de Arquitectura,21517089,True,,,Buenos Aires|Bernal Este,Don Bosco,524,PB,-34.7173,-58.288204,Bernal Este - Buenos Aires,(011) 4252 - 2706,+541142522706,
12554156,"Luchetti, Walter",21538184,True,,,Buenos Aires|Gerli,BRASIL 1060 PA TP,,,-34.68227,-58.389225,Gerli - Buenos Aires,(011) 4209 - 3347,+541142093347,
12554539,Cragno Juan Carlos,21549599,True,,,Buenos Aires|Lomas de Zamora,Pintos,252,,-34.753117,-58.392673,Lomas de Zamora - Buenos Aires,(011) 4243 - 9592,+541142439592,
12554627,Fronti Juan Carlos,21557945,True,,,Buenos Aires|Bernal Este,26 De Julio 1890,163,PB,-34.715492,-58.280506,Bernal Este - Buenos Aires,(011) 4252 - 0701,+541142520701,
12554839,Markarian Miguel Angel,21584825,True,,,Buenos Aires|Valentín Alsina,J I RUCCI,986,1,-34.67534,-58.408775,Valentín Alsina - Buenos Aires,(011) 4209 - 1410,+541142091410,
12861289,Pastore P.,01262100,True,,,Buenos Aires|Pilar,Lagrave,972,,-34.457116,-58.918638,Pilar - Buenos Aires,(0230) 442 - 7040,+542304427040,
13442997,Alejandro Hugo Judewicz,,True,,,Buenos Aires|Mar del Plata,Entre Ríos,4067,PB,-38.020146,-57.558201,Mar del Plata - Buenos Aires,(0223) 492 - 1459,+542234921459,
13966535,Estudio de Arquitectura,,True,,,Buenos Aires|Chivilcoy,Almafuerte,203,,-34.900085,-60.016666,Chivilcoy - Buenos Aires,(02346) 15 - 68 - 7651,+5492346687651,relaxague@yahoo.com.ar
13970853,Julia Romero,,True,,,Buenos Aires|Mar del Plata,G Chaves,2762,,-38.036644,-57.595924,Mar del Plata - Buenos Aires,(0223) 481 - 2355,+542234812355,
14049444,Jorge Garrido,,True,,,Buenos Aires|Monte Grande,25 De Mayo,696,,-34.813953,-58.48107,Monte Grande - Buenos Aires,(011) 15 - 5006 - 4180,+5491150064180,
14065374,Podesta Jose M,,True,,,Buenos Aires|Lincoln,Av 25 De Mayo,245,,-34.866753,-61.55,Lincoln - Buenos Aires,(02355) 42 - 2599,+542355422599,
14065465,Pinedo Agustin Arquitecto,,True,,,Buenos Aires|Junín,Av San Martín,37,,-34.590208,-60.952282,Junín - Buenos Aires,(0236) 442 - 1758,+542364421758,
14068849,Marenti Osvaldo,,True,,,Buenos Aires|Pehuajó,P J Landa,1225,PB,-35.800083,-61.86667,Pehuajó - Buenos Aires,(02396) 47 - 5706,+542396475706,
14073466,Fragas Oscar a,,True,,,Buenos Aires|Adrogué,E Adrogué,1180,PB,-34.79859,-58.39103,Adrogué - Buenos Aires,(011) 4293 - 8175,+541142938175,
14083205,Mario Matuk,,True,,,Buenos Aires|Villa Gesell,Avenida 1,1043,PB,-37.249508,-56.955055,Villa Gesell - Buenos Aires,(02255) 47 - 8373,+542255478373,
14085448,Andres o Cardinale,,True,,,Buenos Aires|Salto,Sarmiento,313,,-34.300083,-60.25,Salto - Buenos Aires,(02474) 42 - 4535,+542474424535,
14085490,Osvaldo P Rodriguez,,True,,,Buenos Aires|Salto,Piedras,145,,-34.300083,-60.25,Salto - Buenos Aires,(02474) 42 - 5396,+542474425396,
14108745,Riddick Claudio,,True,,,Buenos Aires|La Plata,466,636,,,,La Plata - Buenos Aires,(0221) 15 - 555 - 2667,+5492215552667,
14090702,Arquitecto Gustavo Daniel Gomez - Proyecto y Direccion de Ob,,True,,,Buenos Aires|Villa Gesell,Avenida 5,687,,-37.257328,-56.97326,Villa Gesell - Buenos Aires,(02255) 45 - 7401,+542255457401,
14168726,Aliscioni Marcela Laura Arq.,,True,,,Buenos Aires|Banfield,V Vergara,1230,,-34.746357,-58.3953,Banfield - Buenos Aires,(011) 4248 - 4137,+541142484137,
14168834,Fidanza Luis,,True,,,Buenos Aires|Quilmes,Alte Brown,440,PA,-34.718212,-58.25879,Quilmes - Buenos Aires,(011) 4254 - 2815,+541142542815,
14175016,Arq. Gustavo Crimella,,True,,,Buenos Aires|San Miguel,Mstro D'Elía 1158 1 B,,,,,San Miguel - Buenos Aires,(011) 4667 - 6633,+541146676633,
14175219,Marcelo G Bulgach,,True,,,Buenos Aires|Ituzaingo,Pringles,812,,-34.63067,-58.688206,Ituzaingo - Buenos Aires,(011) 4621 - 6802,+541146216802,
14178392,Sebastian Blanco,,True,,,Buenos Aires|Punta Alta,2 De Julio,334,PB,-38.883247,-62.066666,Punta Alta - Buenos Aires,(02932) 42 - 4211,+542932424211,
14179165,Mario Luis Wlasic,,True,,,Buenos Aires|Mar del Plata,C Pellegrini,3818,,-38.02756,-57.53837,Mar del Plata - Buenos Aires,(0223) 451 - 4897,+542234514897,
16254447,253  Arquitectura,22543932,True,,www.253arquitectura.com,Buenos Aires|Pilar,Parque Austral S/N 02 Edif. M3,,,,,Pilar - Buenos Aires,(011) 15 - 3850 - 6497,+5491138506497,253arquitectura@gmail.com
16283232,Neo Estudio,22544585,True,,,Buenos Aires|Chascomús,Obligado,76,,-35.575024,-58.004845,Chascomús - Buenos Aires,(02241) 15 - 69 - 7152,+5492241697152,neoestudio@yahoo.com.ar
14079627,Caride & Asociados Estudio de Arquitectura,00514844,True,,,Buenos Aires|Tandil,Guido,145,,-37.326,-59.14,Tandil - Buenos Aires,(0249) 444 - 1197,+542494441197,
11351479,Cutrera Daniel,00087350,True,,,Buenos Aires|Mar del Plata,Av P Luro,3071,8,-37.9962,-57.5507,Mar del Plata - Buenos Aires,(0223) 493 - 8781,+542234938781,
11819280,Angel Falzone,21370555,True,,,Buenos Aires|Mar del Plata,Córdoba,1882,7,-38.000828,-57.547844,Mar del Plata - Buenos Aires,(0223) 491 - 1813,+542234911813,
13561277,Gerardi - Patricia Rasente,21129266,True,,,Buenos Aires|Luján,A Alsina,1072,,-34.567337,-59.112765,Luján - Buenos Aires,(02323) 42 - 0220,+542323420220,
14058154,Labaca Ignacio,00084616,True,,,Buenos Aires|Mar del Plata,Alte Brown,3185,5,-38.001,-57.556572,Mar del Plata - Buenos Aires,(0223) 491 - 3843,+542234913843,
14087543,Veliz Hugo Arquitecto - Arquitectura Integral,00773762,True,,,Buenos Aires|La Plata,93,464,,-34.9442,-57.904396,La Plata - Buenos Aires,(0221) 486 - 1897,+542214861897,hugovelizrojas@yahoo.com.ar
10852917,Pfister Cesar e,00223724,True,,,Buenos Aires|Salto,Lavalle,11,,-34.300083,-60.25,Salto - Buenos Aires,(02474) 42 - 3292,+542474423292,
14483095,Estudio Silva Arquitectos y Asoc,21616849,True,,,Buenos Aires|Florencio Varela,Entre Ríos,3555,,-34.812195,-58.269756,Florencio Varela - Buenos Aires,(011) 4255 - 9399,+541142559399,estudiosilvaarquitectos@gmail.com
15315635,Arqxial,01441454,True,,www.arqxial.com.ar,Buenos Aires|Ituzaingo,Juncal,481,,-34.654716,-58.66619,Ituzaingo - Buenos Aires,(011) 4661 - 3037,+541146613037,
16313636,Cortopasso Bisogno SRL,21965319,True,,,Buenos Aires|Necochea,Av 59,2850,1,,,Necochea - Buenos Aires,(02262) 42 - 1936,+542262421936,
13845115,Hodara Yasmin Daiana,21690559,True,,,Buenos Aires|Martínez,Castro Barros,2860,-,-34.504562,-58.51357,Martínez - Buenos Aires,(011) 4793 - 3552,+541147933552,
16314692,Consulting Safety Work SRL,22249643,True,,,Buenos Aires|Parque Camet,Av Constit,7978,,,,Parque Camet - Buenos Aires,(0223) 471 - 0598,+542234710598,
14064642,Salenave Jose,00208678,True,,,Buenos Aires|Benito Juárez,Av Libertad,306,,-37.683,-59.666668,Benito Juárez - Buenos Aires,(02292) 45 - 2055,+542292452055,
14072908,Malah Gustavo a,00340562,True,,,Buenos Aires|Quilmes,Alsina,208,2,-34.721107,-58.25764,Quilmes - Buenos Aires,(011) 4254 - 9402,+541142549402,
14178875,Angel Ferraro,01404984,True,,,Buenos Aires|Coronel Dorrego,Av R Fuertes,322,,-38.716583,-61.283333,Coronel Dorrego - Buenos Aires,(02921) 45 - 2088,+542921452088,
15230695,Aldo de Paula Arquitectura,00260756,True,,www.aldodepaula.com.ar,Buenos Aires|Moreno,Méjico,572,,-34.62705,-58.78685,Moreno - Buenos Aires,(0237) 468 - 3732,+542374683732,estudio@aldodepaula.com.ar
16169833,Teyssandier Eduardo,01273771,True,,,Buenos Aires|Pergamino,Lebensohn,2151,,-33.900085,-60.583332,Pergamino - Buenos Aires,(02477) 43 - 4966,+542477434966,
16701959,Block Arquitectura,22777089,True,,,Buenos Aires|Benavídez,Av Benavidez,3784,,-34.402763,-58.68175,Benavídez - Buenos Aires,(011) 15 - 5713 - 6472,+5491157136472,blockventas@gmail.com
15757473,Arquigroup S a,21285559,True,,,Buenos Aires|Pilar,Av Lopez 250,,,,,Pilar - Buenos Aires,(0230) 437 - 3030,+542304373030,
14733056,Marcelo Misa,21232204,True,,,Buenos Aires|José María Jáuregui,España,240,,,,José María Jáuregui - Buenos Aires,(02323) 49 - 7111,+542323497111,
13448127,Raitzin Norberto Arquitecto,00252596,True,,,Buenos Aires|Carlos Casares,Brandsen,196,,-35.616585,-61.36667,Carlos Casares - Buenos Aires,(02395) 45 - 2925,+542395452925,
13721247,Estudio Nestor Nogueira y Asoc,00243531,True,,,Buenos Aires|La Plata,14,1149,9,-34.924,-57.952,La Plata - Buenos Aires,(0221) 483 - 9806,+542214839806,
15780445,Brudnick Sergio G,00212725,True,,,Buenos Aires|Alejandro Petión,M Acosta,64,,-34.966583,-58.683334,Alejandro Petión - Buenos Aires,(02226) 49 - 1518,+542226491518,info@clubdecampoprop.com.ar
10943394,Ava Estudio,00841630,True,,,Buenos Aires|Martínez,Pje Galileo,2445,,-34.497647,-58.50821,Martínez - Buenos Aires,(011) 3534 - 0008,+541135340008,arq.vanoli@gmail.com
12553325,Cuatro Arquitectura SRL,21489305,True,,http://www.cuatroarquitectura.com.ar/,Buenos Aires|Quilmes,Belgrano,924,PB,-34.722927,-58.24743,Quilmes - Buenos Aires,(011) 4253 - 0364,+541142530364,
13854498,Arq,21774649,True,,,Buenos Aires|Costa del Este,Av 2,94,PB,-36.5972,-56.6849,Costa del Este - Buenos Aires,(02246) 43 - 4146,+542246434146,leandrosuarez9@hotmail.com
15663733,Wimag SRL,00622100,True,,www.wimag.com.ar,Buenos Aires|Castelar,Campana,847,PB,-34.64305,-58.562565,Castelar - Buenos Aires,(011) 4627 - 7720,+541146277720,info@wimag.com.ar
15229456,Capba Distrito 5,00269255,True,,www.capba5.com.ar,Buenos Aires|Luján,San Martín,1219,,-34.56889,-59.10474,Luján - Buenos Aires,(02323) 43 - 5770,+542323435770,lujan@capba5.com.ar
16321344,Giraud Cristina Aurora,21919285,True,,,Buenos Aires|La Lonja,Col 12 De Oct,,3,,,La Lonja - Buenos Aires,(0230) 466 - 8626,+542304668626,
11997862,Capponi Roberto H,01278404,True,,,Buenos Aires|Lobos,D Olavarrieta,44,,-35.166584,-59.083332,Lobos - Buenos Aires,(02227) 43 - 2370,+542227432370,
13305554,Mamarin Luis Angel,21570193,True,,,Buenos Aires|Tapiales,Donovan,1480,,-34.70177,-58.509354,Tapiales - Buenos Aires,(011) 4622 - 7279,+541146227279,
13542436,Cantarelli Mario,00045526,True,,,Buenos Aires|Bahía Blanca,Portugal,499,,-38.714,-62.259,Bahía Blanca - Buenos Aires,(0291) 452 - 4025,+542914524025,
13548174,Franco Hector R,00269974,True,,,Buenos Aires|Mercedes,Calle 29,698,,-34.648,-59.431,Mercedes - Buenos Aires,(02324) 42 - 3584,+542324423584,
14181986,Ezcurra Graciela,,True,,,Buenos Aires|Mar del Plata,Laprida,2966,,-38.016783,-57.566017,Mar del Plata - Buenos Aires,(0223) 472 - 7343,+542234727343,
14182174,Beatriz Montero,,True,,,Buenos Aires|Mar del Plata,L Piedrabuena,2227,,-38.060472,-57.554838,Mar del Plata - Buenos Aires,(0223) 484 - 3129,+542234843129,
14182195,Laurizi Horacio,,True,,,Buenos Aires|Mar del Plata,Corrientes,4616,,-38.024352,-57.56275,Mar del Plata - Buenos Aires,(0223) 494 - 6608,+542234946608,
14168725,Ahualli Alberto Arq.,21543183,True,,,Buenos Aires|Temperley,Prof J Mariño,320,PB,-34.779366,-58.397377,Temperley - Buenos Aires,(011) 4298 - 7750,+541142987750,
14773127,Ima Architects,21920859,True,,,Buenos Aires|Martínez,Vieytes,402,,-34.482746,-58.4992,Martínez - Buenos Aires,(011) 4733 - 3307,+541147333307,
10750439,Damonte Rodolfo H,00332843,True,,,Buenos Aires|Lomas de Zamora,Av H Yrigoyen,8642,2,-34.75614,-58.401524,Lomas de Zamora - Buenos Aires,(011) 4243 - 4946,+541142434946,
12095774,Alvarez Oscar Arq.,21543233,True,,,Buenos Aires|Sáenz Peña,Beazley,1134,,-34.601626,-58.535421,Sáenz Peña - Buenos Aires,(011) 4712 - 1269,+541147121269,
14452823,Mendy Juan Martin,01460536,True,,,Buenos Aires|Manuel B Gonnet,20,2972,,-34.888397,-58.01535,Manuel B Gonnet - Buenos Aires,(0221) 484 - 4976,+542214844976,
15600026,Juan Paoletta,01171029,True,,,Buenos Aires|San Martín,Cochabamba,2496,,-34.571224,-58.539673,San Martín - Buenos Aires,(011) 4755 - 1449,+541147551449,jcpaoletta@yahoo.com.ar
14121189,Radio Ayacucho Fm 99.1,00211604,True,,http://www.radioayacucho.com.ar,Buenos Aires|Ayacucho,Alem,970,,-37.153926,-58.487833,Ayacucho - Buenos Aires,(02296) 45 - 1010,+542296451010,radioayacucho@speedy.com.ar
13837632,Spinelli Construcciones y Servicios Estudio de Arquitectura,00077867,True,,,Buenos Aires|Mar del Plata,Av Libertad,4380,,-37.98482,-57.560154,Mar del Plata - Buenos Aires,(0223) 473 - 8872,+542234738872,
14390578,International Playing Card Label Arg SA,21702679,True,,,Buenos Aires|General Rodríguez,Int Lumbreras,S/N,,,,General Rodríguez - Buenos Aires,(0237) 485 - 0210,+542374850210,
15672337,Colegio de Arquitectos de la Provincia D,21886670,True,,,Buenos Aires|La Plata,53,320,,-34.911081,-57.94207,La Plata - Buenos Aires,(0221) 421 - 8032,+542214218032,
16824562,Sttva Studio,22783730,True,,,Buenos Aires|Boulogne Sur Mer,P Marín,2056,,-34.49974,-58.577457,Boulogne Sur Mer - Buenos Aires,(011) 15 - 6959 - 0486,+5491169590486,sattvaconstrucciones@gmail.com
16848427,Verza Arquitectura,22785618,True,,,Buenos Aires|Manuel B Gonnet,Camino Gral Belgrano,491,,,,Manuel B Gonnet - Buenos Aires,(0221) 15 - 641 - 7523,+5492216417523,
13452611,Arquitectura C G,00350271,True,,,Buenos Aires|Temperley,Martí,1130,,-34.774544,-58.380527,Temperley - Buenos Aires,(011) 4292 - 5121,+541142925121,arquitectura_cg@yahoo.com.ar
16938998,C&F Arquitectos,21974084,True,,,Buenos Aires|Zárate,Avellaneda,48,2,-34.095715,-59.026127,Zárate - Buenos Aires,(011) 15 - 4025 - 5323,+5491140255323,santiago@casadidio-fonseca.com
16941834,Vanguardia Estudio,01258019,True,,,Buenos Aires|Villa Gesell,Calle 41,,,,,Villa Gesell - Buenos Aires,(02255) 45 - 5444,+542255455444,
15194894,Alricgalindez Arquitectos,21273105,True,,www.alricgalindez.com.ar,Buenos Aires|Martínez,Catamarca,2292,PB,-34.49369,-58.53037,Martínez - Buenos Aires,(011) 5197 - 7802,+541151977802,info@alricgalindez.com.ar
12554537,Clivaggio Guillermo,21549571,True,,,Buenos Aires|Quilmes,R Güiraldes,539,,-34.73685,-58.23554,Quilmes - Buenos Aires,(011) 4257 - 2234,+541142572234,
13594120,Romina Scagliarino,21730753,True,,,Buenos Aires|Lomas de Zamora,General Alvear,184,,-34.757423,-58.40809,Lomas de Zamora - Buenos Aires,(011) 4392 - 1383,+541143921383,rscagliarino@gmail.com
16946446,Studio 92,22780862,True,,,Buenos Aires|Ezpeleta,SAN JOSE DE SA 5431,,,,,Ezpeleta - Buenos Aires,(011) 15 - 2654 - 3771,+5491126543771,
15223857,Martin Deco Arq,21727156,True,,http://www.martindecoarq.com.ar,Buenos Aires|Garín,1 De Mayo,3478,,-34.428238,-58.753628,Garín - Buenos Aires,(0348) 15 - 451 - 2233,+5493484512233,martin.decoarq@gmail.com
10813113,Bianchi Emiliano M,00834826,True,,,Buenos Aires|Florencio Varela,Calle 84 160 PB,,,,,Florencio Varela - Buenos Aires,(011) 4237 - 9167,+541142379167,
10825193,Arquitecto Perugini,00484838,True,,,Buenos Aires|Adrogué,J A Frías,46,PB,-34.79843,-58.407722,Adrogué - Buenos Aires,(011) 4294 - 3838,+541142943838,
14182175,Marta Susana Ramos Lloveras,21565497,True,,,Buenos Aires|Mar del Plata,M T De Alvear,171,8,-38.032675,-57.555909,Mar del Plata - Buenos Aires,(0223) 480 - 0522,+542234800522,
16237849,Barragan Jose Edmundo,21215454,True,,,Buenos Aires|José C Paz,D F Sarmiento,4408,,-34.521819,-58.741931,José C Paz - Buenos Aires,(02320) 43 - 5953,+542320435953,
16868943,Schulz Arquitectos,22787456,True,,,Buenos Aires|Pilar,Ituzaingó,500,,,,Pilar - Buenos Aires,(011) 15 - 5164 - 6210,+5491151646210,arquitectoschulz@gmail.com
14771555,Crear Interiores,21920789,True,,,Buenos Aires|Mar del Plata,Rodríguez Peña,1472,,-38.01875,-57.546,Mar del Plata - Buenos Aires,(0223) 451 - 1632,+542234511632,
14771565,Aulet & Yaregui,21920807,True,,http://www.ayarq.com.ar/,Buenos Aires|La Lonja,Panamericana km 50 Edif Concord Dpto 109,,,,,La Lonja - Buenos Aires,(0230) 464 - 4567,+542304644567,estudio@aulet.com.ar
14809442,Ferreres Mandrioni Arquitectura,21928725,True,,,Buenos Aires|Florencio Varela,Dr S Sallares,350,PB,-34.807667,-58.272217,Florencio Varela - Buenos Aires,(011) 4255 - 0642,+541142550642,fm_obras@yahoo.com.ar
15203785,Capbaiv,01180664,True,,www.capbaiv.org,Buenos Aires|San Martín,Liniers,1906,,-34.580704,-58.539066,San Martín - Buenos Aires,(011) 4755 - 0079,+541147550079,sanmartin@capbaiv.org
15315579,Estudio Medan,01252515,True,,www.estudiomedan.com,Buenos Aires|Nordelta,Bv D Mirador,220,,,,Nordelta - Buenos Aires,(011) 4871 - 8011,+541148718011,info@estudiomedan.com
15589358,Ia Arquitectura,21989776,True,,,Buenos Aires|Mar del Plata,180 S/N Ruta 2,,,,,Mar del Plata - Buenos Aires,(0223) 15 - 663 - 8499,+5492236638499,ezequiel_mdp08@yahoo.com.ar
15604238,Estudio Indo,21991619,True,,,Buenos Aires|La Plata,5,555,3,-34.90824,-57.95431,La Plata - Buenos Aires,(0221) 15 - 557 - 1254,+5492215571254,estudioindo@gmail.com
15639945,Santiago Cordeyro,01177436,True,,www.santiagocordeyro.com.ar,Buenos Aires|Martínez,D Rocha,674,,-34.48431,-58.514317,Martínez - Buenos Aires,(011) 4793 - 4478,+541147934478,scordeyro@santiagocordeyro.com.ar
15825182,Arquitecta Carolina Deltour,00250983,True,,http://www.facebook.com/cdestudioarg,Buenos Aires|Trenque Lauquen,F Vignau,282,,-35.966583,-62.733334,Trenque Lauquen - Buenos Aires,(02392) 42 - 3671,+542392423671,
16007529,Lozano Interiores,22382429,True,,,Buenos Aires|Villa Ballester,Gral Artigas 2277,,,,,Villa Ballester - Buenos Aires,(011) 15 - 6159 - 2365,+5491161592365,syl.lozano@yahoo.com.ar
16091086,Follet Arquitectos,01182226,True,,www.follett.com.ar,Buenos Aires|San Isidro,BLANCO ENCALADA,150,1,-34.493065,-58.552998,San Isidro - Buenos Aires,(011) 4763 - 7777,+541147637777,estudio@follett.com.ar
14282182,Aldalur y Asoc.,21661917,True,,,Buenos Aires|La Lonja,Los Manzanos,1000,,,,La Lonja - Buenos Aires,(0230) 430 - 0120,+542304300120,arq_aldalur@yahoo.com
14935461,Efc Echave y Fernandez Criado Arquitectos,21936191,True,,,Buenos Aires|Balcarce,Calle 28,912,,-37.866585,-58.25,Balcarce - Buenos Aires,(02266) 42 - 2113,+542266422113,
15618624,Sabrina Magallanes Arquitecta,01435167,True,,www.smarq.com.ar,Buenos Aires|Quilmes,C Pellegrini,376,,-34.725513,-58.264755,Quilmes - Buenos Aires,(011) 4254 - 7964,+541142547964,
15719133,Ead Estudio de Arquitectura y Diseño,00555776,True,,www.estudioead.com.ar,Buenos Aires|Coronel Brandsen,Bv B Mitre,664,,-35.158543,-58.24547,Coronel Brandsen - Buenos Aires,(02223) 44 - 2321,+542223442321,info@estudioead.com.ar
15830369,Diego Cassiani Arquitecto y Asociados,21430658,True,,www.diegocassiani.com.ar,Buenos Aires|La Plata,Diagonal 74,2663,,-34.936752,-57.953953,La Plata - Buenos Aires,(0221) 417 - 7271,+542214177271,estudio@diegocassiani.com.ar
16094740,Bracco Juliana Arquitecta,21292778,True,,,Buenos Aires|Colón,Calle 49,960,,-33.98325,-61.1,Colón - Buenos Aires,(02473) 43 - 0714,+542473430714,juliana_bracco@yahoo.com.ar
14168765,Di Calogero Vicente,21549685,True,,,Buenos Aires|José Mármol,Bynnon,2498,PB,-34.790676,-58.37634,José Mármol - Buenos Aires,(011) 4293 - 1802,+541142931802,
16439245,Bertoli SA,00210502,True,,www.bertoliconstructora.com.ar,Buenos Aires|Tandil,Gral Pinto,544,1,-37.327995,-59.135998,Tandil - Buenos Aires,(0249) 444 - 0480,+542494440480,mbertoli@bertoliconstructora.com.ar
13452116,Aequitectos Ag - Arq.,00874239,True,,http://www.edilizio.com.a,Buenos Aires|Florida,Cnel J Bogado,2324,,-34.541294,-58.485264,Florida - Buenos Aires,(011) 15 - 3378 - 2242,+5491133782242,
12047986,De Arquitectos,21531438,True,,,Buenos Aires|Olivos,Corrientes,615,8,-34.50892,-58.480812,Olivos - Buenos Aires,(011) 4790 - 3340,+541147903340,
14153907,Estudio Lamagni,21518807,True,,www.estudiolamagni.com.ar,Buenos Aires|El Palomar,Gral Victorica,445,,-34.608105,-58.595757,El Palomar - Buenos Aires,(011) 4751 - 7824,+541147517824,
16921869,Silvina,22797067,True,,,Buenos Aires|Ciudad Madero,Caaguazú 1484,,,,,Ciudad Madero - Buenos Aires,(011) 15 - 2717 - 4840,+5491127174840,
16921933,Aguzzi Daniel,22797129,True,,,Buenos Aires|Florida,Antonio Malaver 3496,,,,,Florida - Buenos Aires,(011) 15 - 5615 - 5213,+5491156155213,
16921999,Alfonso Aldo,22797195,True,,,Buenos Aires|Villa Bosch,La Cautiva 7359,,,,,Villa Bosch - Buenos Aires,(011) 15 - 2393 - 1745,+5491123931745,
16922006,Almada Nelson,22797202,True,,,Buenos Aires|Billinghurst,Moreno 4085,,,,,Billinghurst - Buenos Aires,(011) 15 - 6024 - 4404,+5491160244404,
16922030,Alvarez Benedettini Jorge,22797226,True,,,Buenos Aires|Fátima,Camino Gral. San Antonio 1359,,,,,Fátima - Buenos Aires,(011) 15 - 3918 - 5600,+5491139185600,
16922126,Ariel Martin,22797322,True,,,Buenos Aires|Castelar,Carlos Casares 1027,,,,,Castelar - Buenos Aires,(011) 15 - 6437 - 6184,+5491164376184,
16922139,Arrigo Martin,22797335,True,,,Buenos Aires|González Catán,Calle Rosales,,,,,González Catán - Buenos Aires,(011) 15 - 6544 - 1002,+5491165441002,
16922242,Bellemmi Ezequiel,22797438,True,,,Buenos Aires|Ramos Mejía,Colón 1138,,,,,Ramos Mejía - Buenos Aires,(011) 15 - 6173 - 0540,+5491161730540,
16922325,Benitez Jorge,22797449,True,,,Buenos Aires|Trujui,San Emilio 1270,,,,,Trujui - Buenos Aires,(011) 15 - 6447 - 2973,+5491164472973,
16922330,Brizuela Franco,22797526,True,,,Buenos Aires|Ingeniero Budge,R. Venzano 2038,,,,,Ingeniero Budge - Buenos Aires,(011) 15 - 2348 - 8564,+5491123488564,
15629207,Construcnor SA,01180884,True,,www.construcnorsa.com.ar,Buenos Aires|Carapachay,Montes De Oca,6430,,-34.532505,-58.540783,Carapachay - Buenos Aires,(011) 4756 - 8085,+541147568085,
12147414,Czajkowski Cristina,21549602,True,,,Buenos Aires|Zárate,Rta Nac 9,9,,-34.1022,-59.0247,Zárate - Buenos Aires,(03487) 43 - 0531,+543487430531,
13417957,Alvarez Jorge Luis Arq.,21543228,True,,,Buenos Aires|Sáenz Peña,B LYNCH,3194,,-34.596772,-58.529894,Sáenz Peña - Buenos Aires,(011) 4757 - 5757,+541147575757,
14155170,Estudio Sangiuliano Saviano SRL,21273845,True,,www.sangiuliano.com.ar,Buenos Aires|Béccar,Ing Marconi,3083,,-34.473392,-58.558315,Béccar - Buenos Aires,(011) 4519 - 2506,+541145192506,info@sangiuliano.com.ar
16155882,Mercedes Fariña,21265199,True,,,Buenos Aires|José Ingenieros,S Pedro C319,1720,07,,,José Ingenieros - Buenos Aires,(011) 4712 - 6107,+541147126107,
15623122,Wes Inmobiliaria SRL,01186725,True,,,Buenos Aires|Boulogne Sur Mer,Av Sucre,439,,-34.499165,-58.559822,Boulogne Sur Mer - Buenos Aires,(011) 4700 - 8070,+541147008070,
15817068,Maria Luisa Sorolla,00833607,True,,,Buenos Aires|Zárate,F Andrade,59,,-34.096046,-59.026955,Zárate - Buenos Aires,(03487) 42 - 4988,+543487424988,
10876017,Estudio Chunchuna Villafañe,21225420,True,,,Buenos Aires|Florida,Gral L Heras,2565,,-34.537186,-58.49178,Florida - Buenos Aires,(011) 4796 - 0676,+541147960676,
14241612,Maria Paula Rodriguez Noya,01262648,True,,,Buenos Aires|Tigre,R Castiglioni,2235,,-34.427395,-58.601654,Tigre - Buenos Aires,(011) 4731 - 9217,+541147319217,
14253725,O´Connor Cristian,01377105,True,,,Buenos Aires|Martínez,J D De Solís,940,,-34.472589,-58.492969,Martínez - Buenos Aires,(011) 4793 - 9379,+541147939379,
14734692,Tecnica Fiosan Sh de Adrian Ciraulo y Cristian,21628211,True,,,Buenos Aires|Campana,Av Rivadavia,629,2,-34.168431,-58.959757,Campana - Buenos Aires,(03489) 42 - 2019,+543489422019,
14887548,A Boc y Asoc Soc Resp Limitada,21683279,True,,,Buenos Aires|San Martín,Belgrano,3840,1,-34.578323,-58.537847,San Martín - Buenos Aires,(011) 4752 - 9141,+541147529141,
14153994,Chepoa SA,21534759,True,,http://www.fischmensa.com/,Buenos Aires|San Isidro,E Díaz,102,,-34.46672,-58.51804,San Isidro - Buenos Aires,(011) 4742 - 7892,+541147427892,recepcion@chepoasa.com.ar
14085450,Antonio J Rios,00709762,True,,,Buenos Aires|Salto,9 De Julio,222,,-34.299915,-60.25,Salto - Buenos Aires,(02474) 42 - 2448,+542474422448,
12754013,Estudio Guarino & Asoc Arquitectos,00785278,True,,,Buenos Aires|Merlo,Juncal,587,,-34.668224,-58.727184,Merlo - Buenos Aires,(0220) 483 - 8415,+542204838415,
14153999,Idea 2 Arquitectura,21534993,True,,,Buenos Aires|Florida,M J Haedo,1861,,-34.53061,-58.485138,Florida - Buenos Aires,(011) 4791 - 7437,+541147917437,
12554059,Dommus Arquitectura,21531521,True,,,Buenos Aires|Lanús,Pte Quintana,160,PB,-34.710373,-58.39394,Lanús - Buenos Aires,(011) 4241 - 8397,+541142418397,
15629105,Arquiclick,00784310,True,,www.arquiclick.com.ar,Buenos Aires|Burzaco,Humberto Primo,618,,-34.82421,-58.393635,Burzaco - Buenos Aires,(011) 4238 - 3607,+541142383607,info@arquiclick.com.ar
16909736,Coninarq,22792482,True,,,Buenos Aires|Saladillo,Av San Martín,3299,,,,Saladillo - Buenos Aires,(02345) 15 - 65 - 1597,+5492345651597,mfmengarelli@hotmail.com
15153481,Elias+Vermaasen Arquitectos y Asoc,00790528,True,,www.evarquitectos.com.ar,Buenos Aires|Quilmes,Humberto I,320,PB,-34.72322,-58.253384,Quilmes - Buenos Aires,(011) 4224 - 0515,+541142240515,
12554528,Daniel Carbonelli,21549490,True,,,Buenos Aires|Luis Guillón,Robertson,2045,,-34.806747,-58.43944,Luis Guillón - Buenos Aires,(011) 4281 - 2359,+541142812359,
10851757,"Forconi, Carlos a",00087700,True,,,Buenos Aires|Mar del Plata,San Luis,1932,,-38.000756,-57.549224,Mar del Plata - Buenos Aires,(0223) 494 - 1361,+542234941361,forconicarlos@speedy.com.ar
11501317,Sandra Martin,00736585,True,,,Buenos Aires|Villa Gesell,Avenida 3,,,,,Villa Gesell - Buenos Aires,(02255) 47 - 4805,+542255474805,smartin@telpin.com.ar
10814307,Clases de Apoyo,00831082,True,,,Buenos Aires|Ramos Mejía,J Pizzurno,175,2,-34.644928,-58.55719,Ramos Mejía - Buenos Aires,(011) 4658 - 2708,+541146582708,
11192224,Fernandez Treviño Arquitecto,00648473,True,,,Buenos Aires|Bolívar,Rivas,355,,-36.233418,-61.11667,Bolívar - Buenos Aires,(02314) 42 - 8553,+542314428553,
11651910,Jorge Contreras - Granza,00259055,True,,,Buenos Aires|Paso del Rey,Lacarra,335,,-34.649044,-58.74912,Paso del Rey - Buenos Aires,(0237) 462 - 5481,+542374625481,
12855470,Arqcons SRL,00532463,True,,www.arqcons.com.ar,Buenos Aires|Pilar,Carlos Calvo,590,1,,,Pilar - Buenos Aires,(0230) 464 - 4777,+542304644777,info@arqcons.com.ar
13083916,Cima SRL,00259051,True,,,Buenos Aires|Moreno,Av Victorica,1128,,-34.635498,-58.79207,Moreno - Buenos Aires,(0237) 463 - 1270,+542374631270,
13546746,Cambronero Montes Francisco,00233003,True,,,Buenos Aires|La Plata,32,556,,-34.9,-57.968,La Plata - Buenos Aires,(0221) 483 - 4224,+542214834224,
14085296,Hermani Sergio Estudio de Arquitectura,00701877,True,,,Buenos Aires|Daireaux,9 De Julio,147,,-36.616753,-61.75,Daireaux - Buenos Aires,(02316) 45 - 3676,+542316453676,sergiohermani@hotmail.com
15660154,Santiago Brunengo,00658459,True,,www.estudiovergani.com.ar,Buenos Aires|Villa Gesell,Paseo 107,444,,-37.24934,-56.955055,Villa Gesell - Buenos Aires,(02255) 46 - 5388,+542255465388,arqjorgevergani@gesell.com.ar
15964762,La Torre Guillermo Arquitecto,21518563,True,,http://www.guillermolatorre.com.ar,Buenos Aires|Olavarría,España,1220,,-36.88445,-60.30974,Olavarría - Buenos Aires,(02284) 42 - 8800,+542284428800,
13207243,Coste & Coste Mantenimiento y Restauracion en Altura,00496130,True,,,Buenos Aires|Mar del Plata,General Paunero,3225,,-38.0202,-57.539575,Mar del Plata - Buenos Aires,(0223) 486 - 3795,+542234863795,
13448608,Arquitecto Victor Patalano,00323939,True,,,Buenos Aires|Quilmes,Av V López,1279,,-34.725916,-58.263563,Quilmes - Buenos Aires,(011) 4224 - 2563,+541142242563,
13454255,Manfidan,00241772,True,,,Buenos Aires|La Plata,122,540,,,,La Plata - Buenos Aires,(0221) 424 - 0500,+542214240500,
13910416,Abarate Costo y Tiempo,00868917,True,,,Buenos Aires|Ramos Mejía,Sgto Cabral,872,,-34.64682,-58.55428,Ramos Mejía - Buenos Aires,(011) 15 - 6991 - 7600,+5491169917600,
14065682,Amichetti Daniel R,00224302,True,,,Buenos Aires|Rojas,Necochea,425,,-34.200085,-60.733334,Rojas - Buenos Aires,(02475) 46 - 3113,+542475463113,
16233077,Inmobiliaria - Arquitectura Concepto,00650665,True,,www.e-concepto.com.ar,Buenos Aires|Pergamino,Moreno,902,,-33.899,-60.566,Pergamino - Buenos Aires,(02477) 43 - 3795,+542477433795,concepto@e-concepto.com.ar
16393057,Cristofoli,00228246,True,,www.cristofoliweb.com,Buenos Aires|La Plata,15,163,,-34.910861,-57.973518,La Plata - Buenos Aires,(0221) 421 - 1044,+542214211044,jimenacristofoli@hotmail.com
16230407,Merli SA - Empresa Constructora,00209849,True,,,Buenos Aires|Tandil,Av J D Buzón,901,,-37.316956,-59.12007,Tandil - Buenos Aires,(0249) 443 - 4318,+542494434318,constructoramerli@hotmail.com
14120848,Bernaola y Bautista Construcciones,00213520,True,,,Buenos Aires|Roque Pérez,Alberdi,1203,,-35.400085,-59.3,Roque Pérez - Buenos Aires,(02227) 49 - 2425,+542227492425,
16207294,Jorge Swinnen Arquitecto,22540230,True,,,Buenos Aires|Mercedes,Calle 104 Bis 3021,,,,,Mercedes - Buenos Aires,(02324) 42 - 3706,+542324423706,jorgeswinnen@yahoo.com.ar
14565954,Arqlgdesign,21886128,True,,www.arqlgdesign.com,Buenos Aires|Tigre,Montevideo,1378,PB,-34.433014,-58.58424,Tigre - Buenos Aires,(011) 15 - 5185 - 9359,+5491151859359,arquinewdesign@gmail.com
15013252,Mendez Marcela a,00848859,True,,,Buenos Aires|José C Paz,Av G Campos,6015,,-34.52759,-58.752142,José C Paz - Buenos Aires,(02320) 42 - 3694,+542320423694,
15773337,Carlos Robacio,00711795,True,,,Buenos Aires|Bahía Blanca,Fitz Roy,133,,-38.72306,-62.26472,Bahía Blanca - Buenos Aires,(0291) 452 - 3602,+542914523602,
12851620,Vaccarezza y Tenesini Arquitectos,00266634,True,,www.arquitectosvta.com.ar/contacto.php,Buenos Aires|Pilar,Alsina,875,,-34.461362,-58.917383,Pilar - Buenos Aires,(0230) 443 - 0900,+542304430900,info@arquitectosvta.com.ar
16932746,Patricia Cervi - Arquitectura Interior,21547704,True,,www.patriciacervi.com.ar,Buenos Aires|Béccar,Charcas,1637,,-34.4658,-58.53212,Béccar - Buenos Aires,(011) 15 - 5937 - 5600,+5491159375600,info@patriciacervi.com.ar
15017913,Arquitecto Luis Albino,00219788,True,,,Buenos Aires|Lincoln,Caseros,260,,-34.866585,-61.55,Lincoln - Buenos Aires,(02355) 42 - 2457,+542355422457,
10773351,Colegio de Arquitectos,00051560,True,,,Buenos Aires|Carmen de Patagones,Dr Baraja,395,,-40.80097,-62.963665,Carmen de Patagones - Buenos Aires,(02920) 46 - 3989,+542920463989,
10773809,Petrillo Carlos,00084733,True,,,Buenos Aires|Mar del Plata,San Luis,1632,4,-37.998,-57.54727,Mar del Plata - Buenos Aires,(0223) 491 - 5254,+542234915254,
10802659,Davico / Cavanna Arquitectos,00327662,True,,,Buenos Aires|Ezeiza,D Laure,900,PB,-34.863056,-58.51594,Ezeiza - Buenos Aires,(011) 4232 - 2000,+541142322000,
12852551,Guillermina Burcheri,00529529,True,,,Buenos Aires|Pilar,El Rincón,756,,-34.452388,-58.916723,Pilar - Buenos Aires,(0230) 442 - 8469,+542304428469,
13545544,Renacimiento,00216563,True,,,Buenos Aires|Chivilcoy,Av Sarmiento,135,,-34.899,-60.015,Chivilcoy - Buenos Aires,(02346) 42 - 2974,+542346422974,
13547129,Scorcelli Jorge Alberto,00237423,True,,,Buenos Aires|La Plata,15,1743,,-34.935,-57.94,La Plata - Buenos Aires,(0221) 457 - 0741,+542214570741,
14376162,Dubourg Nicolas e,00209336,True,,,Buenos Aires|Tandil,Av Avellaneda,1491,,-37.322,-59.136,Tandil - Buenos Aires,(0249) 442 - 3458,+542494423458,
15179600,Willy Chalon Producciones,21829021,True,,www.willychalon.wix.com/willy-chalon-producciones,Buenos Aires|Pergamino,Méjico,1333,,-33.900085,-60.583332,Pergamino - Buenos Aires,(02477) 15 - 65 - 2002,+5492477652002,willychalon@yahoo.com.ar
15587957,Entasis Arquitectura,21656323,True,,,Buenos Aires|Miramar,Calle 33,469,,-38.250084,-57.833332,Miramar - Buenos Aires,(02291) 15 - 41 - 1111,+5492291411111,
14182713,Cecilia F Amado,21649678,True,,,Buenos Aires|Mar del Plata,Castelli,1243,PB,-38.0158,-57.541,Mar del Plata - Buenos Aires,(0223) 486 - 1586,+542234861586,
10748639,Bottero Ruben D,00212378,True,,,Buenos Aires|Cañuelas,Lara,499,,-35.056835,-58.75877,Cañuelas - Buenos Aires,(02226) 42 - 2673,+542226422673,
10803235,Arquitecto Ugarteche Daniel,00349553,True,,,Buenos Aires|Monte Grande,Rivadavia,379,PB,-34.81491,-58.462232,Monte Grande - Buenos Aires,(011) 4290 - 5801,+541142905801,
14064663,Estudio de Arquitectura Garcia Mauro Enrique,00208848,True,,,Buenos Aires|Benito Juárez,B Rivadavia,134,,-37.683,-59.666668,Benito Juárez - Buenos Aires,(02292) 45 - 3262,+542292453262,arqmaurogarcia@hotmail.com
14771439,Dedalo Diseño y Construcciones,01181196,True,,http://www.dedalosrl.com.ar/,Buenos Aires|Florida,Cnel Manuel Roseti 310,,,-34.543304,-58.494602,Florida - Buenos Aires,(011) 4797 - 6990,+541147976990,info@dedalosrl.com
10879861,Adalberto Tamburrano e Hijos,00320748,True,,,Buenos Aires|Berazategui,Av Mitre,1457,PB,-34.759857,-58.20458,Berazategui - Buenos Aires,(011) 4216 - 5000,+541142165000,dtamburrano@yahoo.com.ar
17008567,Arquitecta Magali Fernandez Plana,22807719,True,,,Buenos Aires|Béccar,Int Becco,2380,,,,Béccar - Buenos Aires,(011) 15 - 6834 - 3900,+5491168343900,arqfernandezplana@gmail.com
16379441,Estudio de Arquitectura Calles - Maiaru,00210281,True,,http://www.equiparmuebles.com.ar,Buenos Aires|Tandil,14 De Julio,561,,-37.328663,-59.13944,Tandil - Buenos Aires,(0249) 443 - 0928,+542494430928,marceloluismaiaru@ciudad.com.ar
12863723,Rosana Garante,21235974,True,,,Buenos Aires|Junín,Italia,909,,-34.57869,-60.94827,Junín - Buenos Aires,(0236) 443 - 0151,+542364430151,
16907812,Andre Lorena Sosa,22790483,True,,https://www.sanandotualma.com,Buenos Aires|San Miguel,Azcuénaga,165,,,,San Miguel - Buenos Aires,(011) 15 - 6260 - 0095,+5491162600095,alsosa007@gmail.com
16855865,Hcproyectos,22786343,True,,,Buenos Aires|Don Torcuato,Suiza,1749,,-34.500938,-58.621265,Don Torcuato - Buenos Aires,(011) 15 - 3311 - 8575,+5491133118575,carabajalhernan@gmail.com
13561213,Dario Oscar Lopez,21127227,True,,,Buenos Aires|La Plata,39,1405,PB,-34.921598,-57.97741,La Plata - Buenos Aires,(0221) 479 - 8114,+542214798114,
15671527,Gebetec SA,01182312,True,,,Buenos Aires|Olivos,Cap Bermudez,3945,,-34.51338,-58.51902,Olivos - Buenos Aires,(011) 4711 - 5654,+541147115654,info@gebetec.com
16918493,Florencia Garcia Chafuen,22279744,True,,,Buenos Aires|San Isidro,Av Maipú,150,1,,,San Isidro - Buenos Aires,(011) 15 - 2270 - 1010,+5491122701010,
13404378,Norberto Damian Torrico,21603897,True,,,Buenos Aires|Juan María Gutiérrez,457,1978,,-34.8359,-58.177315,Juan María Gutiérrez - Buenos Aires,(02229) 44 - 0464,+542229440464,
15711160,Iso Express,21578106,True,,http://www.isoexpress.com.ar/,Buenos Aires|Castelar,Gob I Arias,3502,,-34.648754,-58.65708,Castelar - Buenos Aires,(011) 4623 - 2242,+541146232242,info@isoexpress.com.ar
17008979,Ayd Arquitectura y Diseño,22807760,True,,,Buenos Aires|Ingeniero Maschwitz,S Del Estero,877,,,,Ingeniero Maschwitz - Buenos Aires,(011) 7533 - 1568,+541175331568,ayd.interiorismo@gmail.com
16228991,Marmoles Bertacco Diana Arquitectura Integral,00046070,True,,http://www.marmolesbertacco.com.ar,Buenos Aires|Bahía Blanca,Brandsen,708,,-38.71692,-62.25144,Bahía Blanca - Buenos Aires,(0291) 452 - 8253,+542914528253,
16095690,Hughes y Morris Arquitectos SRL,21471447,True,,,Buenos Aires|Remedios de Escalada,Del Valle Iberlucea,4608,PB,-34.72737,-58.39685,Remedios de Escalada - Buenos Aires,(011) 4202 - 2175,+541142022175,
12554624,Humedad Cero,21557666,True,,www.humedadcero.com.ar,Buenos Aires|Remedios de Escalada,Colón,808,PB,-34.731876,-58.409527,Remedios de Escalada - Buenos Aires,(011) 4242 - 6397,+541142426397,
17011040,Studyo4,22807977,True,,,Buenos Aires|Ingeniero Maschwitz,Colectora Oeste,1080,,,,Ingeniero Maschwitz - Buenos Aires,(011) 15 - 6896 - 8612,+5491168968612,info@studyo4.com.ar
14518183,Lynch Hierro Forjado,00239466,True,,,Buenos Aires|La Plata,41,1476,,-34.924593,-57.976661,La Plata - Buenos Aires,(0221) 470 - 4785,+542214704785,ricardolynchobras@hotmail.com
10827589,Vazquez Enrique M,00258972,True,,,Buenos Aires|Moreno,Merlo,2310,,-34.649395,-58.7843,Moreno - Buenos Aires,(0237) 462 - 4304,+542374624304,
14898769,Scussolin Maria Victoria,21851794,True,,,Buenos Aires|Mar del Plata,W C Morris,1646,,-38.06944,-57.550945,Mar del Plata - Buenos Aires,(0223) 485 - 0926,+542234850926,scussolinvictoria@gmail.com
15561214,Ricciardi Blas,21771748,True,,,Buenos Aires|Laferrere,E Echeverría,6167,PB,-34.749588,-58.584324,Laferrere - Buenos Aires,(011) 4626 - 3185,+541146263185,
14081118,Carlos e de Wysiecki,00555758,True,,,Buenos Aires|Chascomús,Muñiz,247,,-35.581997,-58.01644,Chascomús - Buenos Aires,(02241) 42 - 4794,+542241424794,
14415510,Agora - Arquitectura,21531515,True,,,Buenos Aires|Llavallol,Ucrania,218,PB,-34.80491,-58.4325,Llavallol - Buenos Aires,(011) 4298 - 2688,+541142982688,
14553007,D & C Arquitectura Arq. Gustavo a Gonzalez,21194052,True,,,Buenos Aires|Temperley,Santa Cruz,192,,-34.760788,-58.35455,Temperley - Buenos Aires,(011) 4269 - 8418,+541142698418,
14071520,Arquitectura y Agrimensura Direnzo & Asociados,00312463,True,,,Buenos Aires|Avellaneda,Av B Mitre,634,5,-34.6616,-58.365856,Avellaneda - Buenos Aires,(011) 4201 - 5277,+541142015277,info@estudiodirenzo.com
14178549,"Aguirre, Laura Carolina",01377662,True,,,Buenos Aires|Bahía Blanca,Corrientes,546,,-38.718027,-62.254423,Bahía Blanca - Buenos Aires,(0291) 453 - 2868,+542914532868,
15823057,Incofe SRL,00620724,True,,,Buenos Aires|San Justo,Constitución,3620,,-34.676176,-58.547727,San Justo - Buenos Aires,(011) 4484 - 6108,+541144846108,
17014465,Fabio Juchani,22808295,True,,http://www.fabiojuchani.com,Buenos Aires|Costa del Este,Av 2,94,,,,Costa del Este - Buenos Aires,(02246) 15 - 50 - 7547,+5492246507547,fabio_psb_07@hotmail.com
17014467,Faro,22808296,True,,http://www.grupofaroarquitectura.com,Buenos Aires|San Bernardo,Av Mitre,2982,,,,San Bernardo - Buenos Aires,(02257) 15 - 61 - 8078,+5492257618078,fabio_psb_07@hotmail.com
12554340,Arquitectura3S,21543768,True,,,Buenos Aires|Adrogué,A SOMELLERA,721,1,-34.800518,-58.391457,Adrogué - Buenos Aires,(011) 4294 - 3801,+541142943801,
10757914,Maximo M M Frederic,00642441,True,,,Buenos Aires|Lomas de Zamora,Av Meeks,275,1,-34.764114,-58.398712,Lomas de Zamora - Buenos Aires,(011) 4243 - 6726,+541142436726,
15072240,Ernesto Raul Ballesteros,00971882,True,,,Buenos Aires|San Nicolás,Garibaldi,183,,-33.333504,-60.22824,San Nicolás - Buenos Aires,(0336) 442 - 9270,+543364429270,dya@intercom.com.ar
16639383,Estudio de Arquitectura,21395817,True,,http://www.mariafreixedesarq.com.ar,Buenos Aires|San Pedro,Salta,1367,,-33.700085,-59.683334,San Pedro - Buenos Aires,(03329) 42 - 1112,+543329421112,arqfreixedes@hotmail.com
14182172,Marcelo Erviti,21565416,True,,,Buenos Aires|Mar del Plata,SAN LUIS,3124,,-38.010403,-57.557082,Mar del Plata - Buenos Aires,(0223) 495 - 2172,+542234952172,
14058721,Cobos Osvaldo,00093253,True,,,Buenos Aires|Mar de Ajó,Rawson,270,,-36.716583,-56.683334,Mar de Ajó - Buenos Aires,(02257) 42 - 2705,+542257422705,
17022607,Arquitecto Leandro Fusaro,22809067,True,,http://www.arqleandrofusaro.com,Buenos Aires|Rincón de Milberg,Bv Chico,40,,,,Rincón de Milberg - Buenos Aires,(011) 15 - 4060 - 0280,+5491140600280,arq.fusero@gmail.com
14174982,3 Dimensiones,21535801,True,,,Buenos Aires|Castelar,San Nicolás,1267,,-34.645973,-58.647907,Castelar - Buenos Aires,(011) 4624 - 0910,+541146240910,roldangeorgina@yahoo.com.ar
15156676,Arquigraf - Arquiprop,00223652,True,,http://www.arquigrupo.com,Buenos Aires|Salto,Piedras,676,,-34.299915,-60.25,Salto - Buenos Aires,(02474) 42 - 2959,+542474422959,arquigraf@arquigrupo.com
13554990,Arquitectura Moderna Reynoso - Gentile,00932032,True,,,Buenos Aires|La Plata,16,468,,-34.917,-57.967,La Plata - Buenos Aires,(0221) 483 - 5322,+542214835322,
10413370,Arte Cret,01378418,True,,http://www.artecret.com.ar,Buenos Aires|Sáenz Peña,Moriondo C424,3264,,-34.600219,-58.536387,Sáenz Peña - Buenos Aires,(011) 4712 - 6953,+541147126953,info@artecret.com.ar
13452810,Colegio de Arquitectos de la Pcia de Bs As - Dist III Moron,00364508,True,,www.capba3.org.ar,Buenos Aires|Morón,L N Alem,826,,-34.645584,-58.62022,Morón - Buenos Aires,(011) 4483 - 2233,+541144832233,administracion@capba3.org.ar
12072600,Construirte - Estudio Tecnico,21531420,True,,,Buenos Aires|San Miguel,B IBÁÑEZ,2807,,-34.546112,-58.739482,San Miguel - Buenos Aires,(011) 4455 - 2036,+541144552036,
13442996,Leonardo Luis Cigliano,21565402,True,,,Buenos Aires|Mar del Plata,E Soler,2908,,-38.0542,-57.553903,Mar del Plata - Buenos Aires,(0223) 489 - 5745,+542234895745,
15267980,Ng Estudio de Diseño & Arquitectura Alonso - Galeano,21232824,True,,http://www.estudiong.com.ar/index.html,Buenos Aires|Moreno,Arribeños,1514,,-34.647526,-58.767673,Moreno - Buenos Aires,(0237) 466 - 6777,+542374666777,ngestudio@yahoo.com.ar
10875251,Mediarq,21178130,True,,,Buenos Aires|Lomas de Zamora,Paso,375,2,-34.752083,-58.400234,Lomas de Zamora - Buenos Aires,(011) 4292 - 1990,+541142921990,
13687777,Estudio Frolik Arquitectos,00210150,True,,http://www.rodolfofrolik.com.ar,Buenos Aires|Tandil,Gral Rodríguez,333,,-37.329,-59.134,Tandil - Buenos Aires,(0249) 442 - 9221,+542494429221,
10784619,Arq Ronzoni & Asoc,00677885,True,,,Buenos Aires|Lomas de Zamora,P I De Rivera,443,PB,-34.755514,-58.402145,Lomas de Zamora - Buenos Aires,(011) 4244 - 7174,+541142447174,
13567246,Inmobiliaria Mateos,00091685,True,,,Buenos Aires|Mar del Tuyú,Calle 2,5915,,-36.585995,-56.69245,Mar del Tuyú - Buenos Aires,(02246) 42 - 1869,+542246421869,
14343353,Arquitecto Daniel Iriso,00351535,True,,,Buenos Aires|Adrogué,Uriburu 458,,,-34.798115,-58.396352,Adrogué - Buenos Aires,(011) 4294 - 0927,+541142940927,
14600305,Traverso Gaston F - Arquitecto,00222696,True,,,Buenos Aires|Junín,R E De San Martín,108,,-34.590862,-60.94397,Junín - Buenos Aires,(0236) 444 - 6694,+542364446694,gastontarq@gmail.com
15817128,Raul Torales Ayala,01410476,True,,,Buenos Aires|Bahía Blanca,Reconquista,298,,-38.700775,-62.24971,Bahía Blanca - Buenos Aires,(0291) 454 - 1011,+542914541011,arqobra@infovia.com.ar
13919529,Fabio Marras Construcciones,00487793,True,,,Buenos Aires|Ramos Mejía,T J Villegas,345,PA,,,Ramos Mejía - Buenos Aires,(011) 4484 - 2533,+541144842533,
14090785,Casanoba Guillermo,00882183,True,,,Buenos Aires|Merlo,L N Alem,1075,,-34.674,-58.717068,Merlo - Buenos Aires,(0220) 483 - 8762,+542204838762,
14552084,Estudio de Arquitectura Fernando Lopez,21605560,True,,www.estudiofdlopez.com.ar,Buenos Aires|Valentín Alsina,A Palacios,3312,,-34.668037,-58.41026,Valentín Alsina - Buenos Aires,(011) 4218 - 3603,+541142183603,
10439245,Estudio Crearte,01490298,True,,,Buenos Aires|Rafael Calzada,B Rivadavia,3188,,-34.79521,-58.3591,Rafael Calzada - Buenos Aires,(011) 4236 - 3065,+541142363065,
14178874,Analia Santellan,01404982,True,,,Buenos Aires|Bahía Blanca,19 De Mayo,611,,-38.709002,-62.261503,Bahía Blanca - Buenos Aires,(0291) 451 - 8136,+542914518136,
15139189,Matias Franzese,21954689,True,,,Buenos Aires|Miramar,Calle 44,361,,-38.250084,-57.833332,Miramar - Buenos Aires,(02291) 43 - 0553,+542291430553,
12857374,Sanchez,00975666,True,,,Buenos Aires|San Nicolás,DE LA NACION,321,,-33.333504,-60.22824,San Nicolás - Buenos Aires,(0336) 442 - 7201,+543364427201,
15230743,Tallarico Agrimensura,00810863,True,,www.agrimensortallarico.com.ar,Buenos Aires|José León Suárez,Av Bdier Rosas,2302,,-34.52819,-58.573597,José León Suárez - Buenos Aires,(011) 4729 - 6962,+541147296962,info@agrimensortallarico.com.ar
15643884,Arquitech,00368290,True,,,Buenos Aires|Parque Leloir,Av Pte Perón,7895,,-34.616768,-58.697628,Parque Leloir - Buenos Aires,(011) 4621 - 0755,+541146210755,
15780475,Colegio Arquitectos Provincia de Buenos Aires,00669323,True,,,Buenos Aires|Pilar,L López,980,,-34.459484,-58.91855,Pilar - Buenos Aires,(0230) 442 - 9725,+542304429725,adrianaciraudo@yahoo.com.ar
13953124,Impermax,21798722,True,,,Buenos Aires|La Plata,Diagonal 74,2281,PB,-34.929757,-57.954183,La Plata - Buenos Aires,(0221) 512 - 4268,+542215124268,impermaxconstructora@gmail.com
12905851,Gomez W Julian,00861092,True,,,Buenos Aires|Bolívar,Cnel F Borges,80,,-36.23325,-61.11667,Bolívar - Buenos Aires,(02314) 42 - 1310,+542314421310,
12105887,Cecilia Cugliari,21554109,True,,,Buenos Aires|Ciudad Madero,D MILLÁN,661,PB,-34.693761,-58.497354,Ciudad Madero - Buenos Aires,(011) 4622 - 0554,+541146220554,
14233619,Estudio Tecnico Integral,21685110,True,,,Buenos Aires|San Justo,E Ríos,2969,4,-34.67594,-58.560906,San Justo - Buenos Aires,(011) 4441 - 4951,+541144414951,
13561346,Arquitecto Puyos $ Asociados,21160526,True,,,Buenos Aires|Luján,Humberto Primo,963,1,-34.566522,-59.110656,Luján - Buenos Aires,(02323) 43 - 4663,+542323434663,
14020497,Alejandro Garcia Cuerva Crearq Construcciones,00333595,True,,http://www.crearq.com.ar,Buenos Aires|Lomas de Zamora,España,229,,-34.76357,-58.400177,Lomas de Zamora - Buenos Aires,(011) 4244 - 9494,+541142449494,info@crearq.com.ar
10408535,Trimarco Leonardo Jorge,21128761,True,,,Buenos Aires|Ramos Mejía,D French,54,,-34.6399323,-58.56261262,Ramos Mejía - Buenos Aires,(011) 4654 - 1306,+541146541306,
12847781,Petrocelli - Iglesias Arquitectos,00971883,True,,,Buenos Aires|San Nicolás,Sarmiento,68,Lo,-33.333336,-60.22824,San Nicolás - Buenos Aires,(0336) 442 - 9704,+543364429704,
14751056,Agrimensor Alvarez Joaquin & Asoc,00076453,True,,,Buenos Aires|Mar del Plata,Chaco,1765,,-37.990734,-57.565453,Mar del Plata - Buenos Aires,(0223) 472 - 4021,+542234724021,
13258365,Gorelik - Lamberti Estudio de Arquitectura,00229072,True,,,Buenos Aires|La Plata,59,680½,PB,-34.92161,-57.94453,La Plata - Buenos Aires,(0221) 421 - 6809,+542214216809,
13797377,Jorge Crespo,21767678,True,,,Buenos Aires|Cañuelas,Caseros,146,,-35.06495,-58.762856,Cañuelas - Buenos Aires,(02226) 42 - 3386,+542226423386,
16238208,Arquitecta Adriana Bernues,21380149,True,,www.arqtabernues.jimdo.com,Buenos Aires|Lanús,A Del Valle,105,1,-34.704617,-58.393433,Lanús - Buenos Aires,(011) 4241 - 1246,+541142411246,
14457370,Guillermo Amuchastegui,01244830,True,,,Buenos Aires|Glew,Av Almafuerte,258,PB,-34.88892,-58.38164,Glew - Buenos Aires,(02224) 43 - 3936,+542224433936,
14750949,Arquitecta Graciela Haydee Garcia,21565424,True,,,Buenos Aires|Mar del Plata,3 De Febrero,4374,,-37.987244,-57.562016,Mar del Plata - Buenos Aires,(0223) 473 - 2647,+542234732647,
16207224,Base 3 Arquitectura,21989196,True,,,Buenos Aires|Tandil,Garibaldi,1076,,,,Tandil - Buenos Aires,(0249) 443 - 2683,+542494432683,estudiobase3@gmail.com
10420101,Raul Maceratini,01441174,True,,,Buenos Aires|General Rodríguez,Whelan,100,,-34.60832,-58.952797,General Rodríguez - Buenos Aires,(0237) 484 - 0446,+542374840446,
15022610,Sens Arquitectura,21795060,True,,,Buenos Aires|Morón,25 De Mayo,932,,-34.658665,-58.61979,Morón - Buenos Aires,(011) 4460 - 5733,+541144605733,
15768106,Arquitecto Oddo,01433723,True,,,Buenos Aires|Carlos Casares,passerini s/n,,,,,Carlos Casares - Buenos Aires,(02395) 45 - 3256,+542395453256,
10891427,Arq Maximiliano R Rizzo Ley 257,00880751,True,,,Buenos Aires|Castelar,Gdor C Casares,1816,,-34.641392,-58.640668,Castelar - Buenos Aires,(011) 4627 - 0812,+541146270812,mr@ley-257.com.ar
10902659,Rabino Patricia,00088414,True,,,Buenos Aires|Mar del Plata,Avellaneda,1966,,-38.013836,-57.54955,Mar del Plata - Buenos Aires,(0223) 494 - 7138,+542234947138,
14046039,Arquitecto Pablo Brothel,00784298,True,,,Buenos Aires|Bernal Oeste,D Rocha,888,,-34.71217,-58.304962,Bernal Oeste - Buenos Aires,(011) 4251 - 2908,+541142512908,estudio@pablobrothel.com.ar
10798260,Grupo Arqadis,21205351,True,,,Buenos Aires|Florencio Varela,Calle 205 447 PB FTE,,,,,Florencio Varela - Buenos Aires,(011) 4255 - 5814,+541142555814,
14772991,Saad Propiedades,00861719,True,,,Buenos Aires|Lomas de Zamora,Juan XXIII,2778,,,,Lomas de Zamora - Buenos Aires,(011) 4244 - 0693,+541142440693,
15311609,Comignani Estudio de Arquitectura,00538073,True,,http://www.comignani.com,Buenos Aires|Bahía Blanca,Av Colón,488,,-38.712,-62.263,Bahía Blanca - Buenos Aires,(0291) 451 - 7185,+542914517185,grupocomignani@hotmail.com
16237808,Abdala y Ortiz Arquitectos y Construcciones,21181567,True,,,Buenos Aires|Lobos,9 De Julio,10,,-35.184855,-59.095832,Lobos - Buenos Aires,(02227) 43 - 0128,+542227430128,
12285958,Villa Propiedades,00313401,True,,http://www.villaprop.com.ar,Buenos Aires|Banfield,Larroque,1091,,-34.743156,-58.410477,Banfield - Buenos Aires,(011) 4202 - 4866,+541142024866,villapropiedades@gmail.com
14072462,Alfonso e Rulli SA,00332251,True,,,Buenos Aires|Remedios de Escalada,C Arenal,2241,,-34.72339,-58.373325,Remedios de Escalada - Buenos Aires,(011) 4242 - 9102,+541142429102,
14552046,Narbaitz Maria Virginia - Seguros,00253965,True,,,Buenos Aires|Carhué,Belgrano,1256,,-37.18325,-62.75,Carhué - Buenos Aires,(02936) 43 - 0321,+542936430321,
10445632,Vargas & Mesulam,01490299,True,,,Buenos Aires|Rafael Calzada,D Rocha,2963,,-34.800741,-58.361119,Rafael Calzada - Buenos Aires,(011) 4236 - 2044,+541142362044,
16093978,Sara B Dalaison,00709931,True,,,Buenos Aires|Salto,Rivadavia,258,,-34.299915,-60.25,Salto - Buenos Aires,(02474) 43 - 1086,+542474431086,
15022425,Arq Ana Laura Ramirez,00891703,True,,,Buenos Aires|Mar del Plata,Magallanes,5037,,-38.032241,-57.562133,Mar del Plata - Buenos Aires,(0223) 480 - 3473,+542234803473,arq_analauraramirez@yahoo.com.ar
15803835,Estudio Cavadini,01273273,True,,,Buenos Aires|Chivilcoy,Gral Pintos,70,,-34.899918,-60.016666,Chivilcoy - Buenos Aires,(02346) 42 - 4909,+542346424909,administracion@estudiocavadini.com
16957102,Viñales Joyeros,00271418,True,,,Buenos Aires|San Antonio de Areco,Alsina,322,,-34.266582,-59.466667,San Antonio de Areco - Buenos Aires,(02326) 45 - 2612,+542326452612,vinales@areconet.com.ar
17065992,Estudio de Arquitectura Garcia do Cobo,00209622,True,,,Buenos Aires|Tandil,Las Heras,634,,-37.320328,-59.13904,Tandil - Buenos Aires,(0249) 442 - 5308,+542494425308,
10409112,Carnaghi Luis o,00315959,True,,http://www.estudiocarnaghi.com.ar,Buenos Aires|Wilde,Las Flores,710,,-34.697384,-58.30995,Wilde - Buenos Aires,(011) 4227 - 3536,+541142273536,arquitectos@estudiocarnaghi.com.ar
13938921,Lafuente Nestor Fabian,21161396,True,,,Buenos Aires|La Plata,42,2412,,-34.943478,-57.995249,La Plata - Buenos Aires,(0221) 479 - 2911,+542214792911,
14841430,Provincia de Bs As Distrito V Colegio de Arquitectos de,01027532,True,,,Buenos Aires|Escobar,Hipolito Yrigo,468,,-34.34784,-58.791325,Escobar - Buenos Aires,(0348) 442 - 8480,+543484428480,
11510394,Conticello Arquitectos,01381436,True,,,Buenos Aires|Vicente López,M D Azcuenaga,102,,-34.53481,-58.469013,Vicente López - Buenos Aires,(011) 4797 - 7939,+541147977939,
13643372,Remis 3030,21169251,True,,,Buenos Aires|Dolores,Paysandú,750,,-36.31658,-57.666668,Dolores - Buenos Aires,(02245) 44 - 3030,+542245443030,
16330440,Lote Inmobiliario,22549793,True,,,Buenos Aires|La Plata,29,3735,,,,La Plata - Buenos Aires,(011) 15 - 6094 - 8432,+5491160948432,proyectodigital@gmail.com
16890427,Colegio de Arquitectos Pcia Bs As Distrito I,00230744,True,,http://www.capbauno.org.ar,Buenos Aires|La Plata,10,689,,-34.914983,-57.956599,La Plata - Buenos Aires,(0221) 423 - 2821,+542214232821,info@capbauno.org.ar
17052279,Mare Arquitectura,22811357,True,,http://www.marearquitectura.com.ar,Buenos Aires|Villa Rosa,J R Camaña,480,,,,Villa Rosa - Buenos Aires,(011) 15 - 2363 - 7413,+5491123637413,administracion@marearquitectura.com.ar
17064037,Biarco,22811581,True,,,Buenos Aires|Vicente López,Av Libertador,1002,,-34.52454,-58.47264,Vicente López - Buenos Aires,(011) 15 - 2466 - 8368,+5491124668368,grupobiarco@gmail.com
17057324,Rotela & Baez Civil,22811799,True,,,Buenos Aires|El Jagüel,P Gandulfo,866,,-34.81808,-58.50032,El Jagüel - Buenos Aires,(011) 15 - 6269 - 0835,+5491162690835,hernan.crt@gmail.com
12554157,Lam - Mateos Estudio de Arquitectura,21538193,True,,,Buenos Aires|Remedios de Escalada,J B Justo,2644,PA,-34.72128,-58.383987,Remedios de Escalada - Buenos Aires,(011) 4249 - 4251,+541142494251,
15729005,Colegio de Arquitectos,00270528,True,,www.capba5.com.ar,Buenos Aires|Mercedes,Calle 30,564,,-34.649,-59.428,Mercedes - Buenos Aires,(02324) 42 - 3224,+542324423224,info@capba5.com.ar
12899268,Colegio de Arquitectos,,True,,,Buenos Aires|9 de Julio,Entre Ríos,980,,,,9 de Julio - Buenos Aires,(02317) 43 - 1166,+542317431166,
14209937,Colegio de Arquitectos,00044092,True,,,Buenos Aires|Coronel Suárez,Rivadavia,278,PB,-37.466583,-61.933334,Coronel Suárez - Buenos Aires,(02926) 42 - 4160,+542926424160,nicotrellini@hotmail.com
12855323,Mandirola - Kubar Arquitectos,00266194,True,,,Buenos Aires|Pilar,Independencia,490,,-34.460478,-58.911375,Pilar - Buenos Aires,(0230) 442 - 7500,+542304427500,
11627930,Montrul Massaro Arquitectos,,True,,,Buenos Aires|Mar del Plata,Jose Pedroni 111,,,,,Mar del Plata - Buenos Aires,(0223) 15 - 531 - 4523,+5492235314523,
13987798,Mansini Arquitectos Asociados,,True,,www.mansini.com.ar,Buenos Aires|Morón,J M Casullo,317,1,-34.651943,-58.62431,Morón - Buenos Aires,(011) 5291 - 8500,+541152918500,estudio@mansini.com.ar
13308115,Perez Teran Arquitectos,21570196,True,,www.perez-teran.com.ar,Buenos Aires|Castelar,Montes De Oca,2465,,-34.649433,-58.64346,Castelar - Buenos Aires,(011) 4629 - 2146,+541146292146,arquitectos@perez-teran.com.ar
16982699,Malah + Grande Arquitectos,22802715,True,,http://www.malahgrande.com.ar,Buenos Aires|Quilmes,N Videla,449,,-34.718015,-58.253779,Quilmes - Buenos Aires,(011) 15 - 5822 - 9001,+5491158229001,estudio@malahgrande.com.ar
15955171,Grupo  Creativo Arquitectos,21421719,True,,www.grupocreativo.com.ar,Buenos Aires|Chivilcoy,Colón,71,PB,-34.900085,-60.016666,Chivilcoy - Buenos Aires,(02346) 42 - 5486,+542346425486,gcreativo@infovia.com.ar
15210254,Carla Bechelli Arquitectos,01181747,True,,www.cbarqs.com,Buenos Aires|Béccar,J Ingenieros,3030,2,-34.47535,-58.55646,Béccar - Buenos Aires,(011) 4519 - 2553,+541145192553,cbechelli@cbarqs.com
15066186,Colegio de Arquitectos de Lanus,21956750,True,,http://www.capba2.org.ar,Buenos Aires|Lanús,M Paz,670,PB,-34.695038,-58.396,Lanús - Buenos Aires,(011) 4249 - 4242,+541142494242,delegacionlanus@capba2.org.ar
15066187,Colegio de Arquitectos de Quilmes,21956751,True,,http://www.capba2.org.ar,Buenos Aires|Quilmes,Alberdi,151,,-34.7175,-58.261803,Quilmes - Buenos Aires,(011) 4254 - 6817,+541142546817,delegacionquilmes@capba2.org.ar
10828643,Cobas y Espinoza Arquitectos,00331633,True,,,Buenos Aires|Gerli,Sarmiento 691,,,-34.697418,-58.378251,Gerli - Buenos Aires,(011) 4241 - 9943,+541142419943,
15066183,Colegio de Arquitectos de Avellaneda,21956746,True,,http://www.capba2.org.ar,Buenos Aires|Avellaneda,Av B Mitre,501,1,-34.660892,-58.36702,Avellaneda - Buenos Aires,(011) 4222 - 4748,+541142224748,delegacionavellaneda@capba2.org.ar
13816396,Caceres Monie Vidauli Arquitectos,,True,,,Buenos Aires|Pinamar,De L Gaviotas,48,,-37.118813,-56.86568,Pinamar - Buenos Aires,(02254) 48 - 4374,+542254484374,
14598411,Colegio de Arquitectos de la Provincia de Buenos,,True,,,Buenos Aires|Lobos,Pte J D Perón,598,,,,Lobos - Buenos Aires,(02227) 43 - 1102,+542227431102,
14540241,Colegio de Arquitectos de la Provincia Buenos a,21851834,True,,www.capbadistrito2.com,Buenos Aires|Chivilcoy,Av Villarino,188,,,,Chivilcoy - Buenos Aires,(02346) 42 - 4957,+542346424957,info@capba2.org.ar
15205779,Colegio de Arquitectos de la Prov de Bs,00253274,True,,www.capbad7.com.ar,Buenos Aires|Bolívar,Ascasubi 211 PB 3,,,,,Bolívar - Buenos Aires,(02396) 47 - 4764,+542396474764,contacto@capbad7.com.ar
15066182,Colegio de Arquitectos de Almirante Brown,21956745,True,,http://www.capba2.org.ar,Buenos Aires|Adrogué,E Adrogué,1151,1,-34.798374,-58.390945,Adrogué - Buenos Aires,(011) 4294 - 0831,+541142940831,delegacionaltebrown@capba2.org.ar
15066184,Colegio de Arquitectos de Florencio Varela,21956748,True,,http://www.capba2.org.ar,Buenos Aires|Florencio Varela,Calle 208,179,,-34.800682,-58.275497,Florencio Varela - Buenos Aires,(011) 4287 - 9076,+541142879076,delegacionvarela@capba2.org.ar
14525371,O&M Estudio Integral Arquitectos,21711462,True,,,Buenos Aires|Quilmes,Irala,2153,,-34.74384,-58.275978,Quilmes - Buenos Aires,(011) 15 - 5185 - 0528,+5491151850528,
15222329,Centro de Arquitectos de San Pedro,01007286,True,,,Buenos Aires|San Pedro,Oliveira Cézar,185,,-33.700085,-59.683334,San Pedro - Buenos Aires,(03329) 42 - 9539,+543329429539,
15065930,Colegio de Arquitectos de Lomas de Zamora,00313732,True,,http://www.capba2.org.ar,Buenos Aires|Banfield,Larroque,550,,-34.744484,-58.402905,Banfield - Buenos Aires,(011) 5088 - 9000,+541150889000,
15329641,Daniel Di Paolo Estudio Arquitectos.,00383213,True,,,Buenos Aires|Hurlingham,General J A Roca,964,2,-34.5912,-58.625664,Hurlingham - Buenos Aires,(011) 4665 - 6163,+541146656163,dpestudio@hotmail.com
12852707,Colegio de Arquitectos de la Pcia de Bs As,00540704,True,,,Buenos Aires|Junín,Gral Zapiola,30,,-34.600956,-60.942074,Junín - Buenos Aires,(0236) 444 - 7871,+542364447871,
13550461,Colegio Arquitectos Pcia Bs As,00548778,True,,,Buenos Aires|Miramar,Calle 19,1010,,-38.27,-57.835,Miramar - Buenos Aires,(02291) 42 - 1647,+542291421647,
10730027,Colegio de Arquitectos de la Pcia de Bs As,00548781,True,,http://www.capbauno.org.ar/institucional/distrito-uno,Buenos Aires|Dolores,Moreno,135,,-36.31675,-57.666668,Dolores - Buenos Aires,(02245) 44 - 0004,+542245440004,info@capbauno.org.ar
12995267,Colegio de Arquitectos Pcia de Bs As Dist 7,,True,,,Buenos Aires|Trenque Lauquen,Pasteur,443,,-35.96675,-62.733334,Trenque Lauquen - Buenos Aires,(02392) 42 - 5079,+542392425079,capbad7tl@yahoo.com.ar
